Business Name,Address,City,State,Zip Code,Full Address,Latitude,Longitude,Registered* Indoor (square feet),Registered* Outdoor (acres),Planted* Indoor (sqft),Planted* Outdoor (acres)
SUNY Morrisville,80 Eaton Street,Morrisville,NY,13408,80 Eaton Street Morrisville NY 13408 ,42.8944699,-75.6454025,,200.00,,
Cornell University,373 Pine Tree Road,Ithaca,NY,13408,373 Pine Tree Road Ithaca NY 13408 ,42.4381080,-76.4625730,"1,500.00",30.00,,
Binghamton University,4400 Vestal Parkway East,Binghamton,NY,13408,4400 Vestal Parkway East Binghamton NY 13408 ,42.0874939,-75.9658689,,0.00,,
Sullivan Community College - SUNY Sullivan,112 College Road,Loch Sheldrake,NY,13408,112 College Road Loch Sheldrake NY 13408 ,41.7727999,-74.6669600,,1.00,,
21st Century Hemp LLC,680 North Road #3,Scottsville,NY,13408,680 North Road #3 Scottsville NY 13408 ,43.0290002,-77.7548277,480.00,10.00,,
JD Pinnacle Holdings dba JD Farms,4337 Lebanon Road,Eaton,NY,13408,4337 Lebanon Road Eaton NY 13408 ,42.7889890,-75.7095530,"4,000.00",80.00,"4,000.00",78.00
Plant Science Laboratories,649 Wyoming Avenue,Buffalo,NY,13408,649 Wyoming Avenue Buffalo NY 13408 ,42.9326052,-78.8239646,,23.00,,
Old Mud Creek Farm LLC,67 Pine Wood Road,Hudson,NY,13408,67 Pine Wood Road Hudson NY 13408 ,42.2528649,-73.7909590,,68.70,,10.14
New York Hemp LLC,442 Big Island Road,Goshen,NY,13408,442 Big Island Road Goshen NY 13408 ,41.3285012,-74.4028775,,20.00,,
PreProcess Inc.,6190 Yardley Lane,San Ramon,CA,13408,6190 Yardley Lane San Ramon CA 13408 ,37.7505722,-121.8979051,,16.00,,
Farm Fresh First,40 Stevens Street,Oakfield,NY,13408,40 Stevens Street Oakfield NY 13408 ,43.0633111,-78.2751107,,459.00,,
Weiss Farms,7828 East Eden Road,Eden,NY,13408,7828 East Eden Road Eden NY 13408 ,42.6723110,-78.8311150,,64.00,,8.00
Donald Spoth Farm and Greenhouses,2715 Tonawanda Creek Road,Amherst,NY,13408,2715 Tonawanda Creek Road Amherst NY 13408 ,43.0681581,-78.7496355,"45,360.00",85.00,,5.00
Jay Stucky dba Berkshire Hemp,2539 Vineyard Road,Romulus,NY,13408,2539 Vineyard Road Romulus NY 13408 ,42.7386729,-76.8009196,,56.00,,
Agricultural Development Services LLC,"370 Summit Point Drive, Suite 1A",Henrietta,NY,13408,"370 Summit Point Drive, Suite 1A Henrietta NY 13408 ",43.0547297,-77.6487294,"69,340.00","3,115.00",,654.80
Edgewood Farms,5064 Wilson Road,Groveland,NY,13408,5064 Wilson Road Groveland NY 13408 ,42.6925690,-77.7424190,,0.00,,
Harvest Queen Farms,145 Big Island Road,Warwick,NY,13408,145 Big Island Road Warwick NY 13408 ,41.3029198,-74.4048595,,30.00,,
Valley View,25 Derrick Lane,Walden,NY,13408,25 Derrick Lane Walden NY 13408 ,41.5577408,-74.2038865,,0.00,,
Eden Agricultural Resources,3940 Hardt Road,Eden,NY,13408,3940 Hardt Road Eden NY 13408 ,42.6672328,-78.8396579,,59.00,,
Gene Reed Dairy Farm,2423 Reservoir Road,New Woodstock,NY,13408,2423 Reservoir Road New Woodstock NY 13408 ,42.8398700,-75.8941660,,0.00,,
DuMond Ag LLC,5083 White Road,Union Springs,NY,13408,5083 White Road Union Springs NY 13408 ,42.8639584,-76.6092966,,69.00,,
22nd Century Group Inc.,"8560 Main Street, Suite 4",Williamsville,NY,13408,"8560 Main Street, Suite 4 Williamsville NY 13408 ",42.9639470,-78.7378091,0.00,,,
Main Street Farms,3320 State Route 215,Cortland,NY,13408,3320 State Route 215 Cortland NY 13408 ,42.5678887,-76.1928413,"51,500.00",73.00,29.00,41.30
Liburdi Industries Inc.,59 Court Street,Binghamton,NY,13408,59 Court Street Binghamton NY 13408 ,42.0990360,-75.9127080,0.00,,,
Hi-Y Farms,6408 Bedient Hill Road,Salamanca,NY,13408,6408 Bedient Hill Road Salamanca NY 13408 ,42.2768350,-78.7731869,"3,000.00",70.00,,18.00
Agbotic Inc.,18135 County Route 75,Sackets Harbor,NY,13408,18135 County Route 75 Sackets Harbor NY 13408 ,43.9461707,-76.1190929,"15,000.00",0.00,"1,598.00",
Projics,245 Easton Station Road,Greenwich,NY,13408,245 Easton Station Road Greenwich NY 13408 ,43.0423696,-73.5004651,,16.00,,
Farm In Peace,3380 Route 39,Collins,NY,13408,3380 Route 39 Collins NY 13408 ,42.4944432,-78.8629673,,17.00,,2.00
Winter Thorn Farm,359 Port Road,Binghamton,NY,13408,359 Port Road Binghamton NY 13408 ,42.2118940,-75.8791990,,0.00,,
Winter Thorn Farm Aﬃliated Grower - Julie Ann's Vegetable & Honey Farm,89 Frost Road,Windsor,NY,13408,89 Frost Road Windsor NY 13408 ,42.0873070,-75.7698640,,0.00,,
High End Group LLC,71-73 N Railroad Ave,Spencer,NY,13408,71-73 N Railroad Ave Spencer NY 13408 ,42.2112519,-76.5021270,"20,200.00",,200.00,
High End Group Affiliated Grower - Grains Alive Organics,226 Albee Hill Road,VanEtten,NY,13408,226 Albee Hill Road VanEtten NY 13408 ,42.1768810,-76.5816300,,3.00,,
High End Group Affiliated Grower - Trinity Acres Farm,118 Stafford Road,Oxford,NY,13408,118 Stafford Road Oxford NY 13408 ,42.4556130,-75.6177480,,7.00,,
Steuben Foods,1150 Maple Road,Elma,NY,13408,1150 Maple Road Elma NY 13408 ,42.8020632,-78.6292347,,0.00,,
Nightshade Farm,686 Fox Creek Road,Medusa,NY,13408,686 Fox Creek Road Medusa NY 13408 ,42.4632950,-74.1688040,"7,260.00",15.00,"1,440.00",5.00
Robert Windsor Farms LLC,18 Roberts Rd,Windsor,NY,13408,18 Roberts Rd Windsor NY 13408 ,42.0897732,-75.7408058,,134.00,,
Edmond Shabo,945 McClellan Road,DeRuyter,NY,13408,945 McClellan Road DeRuyter NY 13408 ,42.7684971,-75.8485095,,10.00,,20.00
BAAR Scientific LLC,6374 State Route 89,Romulus,NY,13408,6374 State Route 89 Romulus NY 13408 ,42.7158192,-76.7611979,,2.00,,
"Sarah Anne Gill, Ph.D",237 Jackson Valley Road,Amsterdam,NY,13408,237 Jackson Valley Road Amsterdam NY 13408 ,43.0307220,-74.1332060,,13.00,,
NY Hemp Source LLC - NOT VAILD AUTH #,"445 5th Avenue, Suite 9",New York,NY,13408,"445 5th Avenue, Suite 9 New York NY 13408 ",40.7515948,-73.9817548,,0.00,,
Hibernia Farm LLC,64 Middle Neck Road,Port Washington,NY,13408,64 Middle Neck Road Port Washington NY 13408 ,40.8499623,-73.6912139,,2.00,,
WhatCannaDo,P.O. Box 108,Gilbertsville,NY,13408,P.O. Box 108 Gilbertsville NY 13408 ,42.4714657,-75.3257290,,13.00,,
WhatCannaDo Affiliated Grower - Keith Klingman,284 Clarence Musson Road,Gilbertsville,NY,13408,284 Clarence Musson Road Gilbertsville NY 13408 ,42.4829830,-75.2965560,,4.00,,
Pleasant View Harvest LLC,4 West Wind Lane,Brewster,NY,13408,4 West Wind Lane Brewster NY 13408 ,41.3638444,-73.6016462,0.00,,"1,600.00",
Scotch Valley Ranch,476 Scotch Valley Ranch Road,Hobart,NY,13408,476 Scotch Valley Ranch Road Hobart NY 13408 ,42.3339487,-74.6425063,"56,770.00",30.00,,3.00
Michael I. Casper Inc.,429 Bostwick Road,Ithaca,NY,13408,429 Bostwick Road Ithaca NY 13408 ,42.4210617,-76.5628888,,12.00,950.00,0.00
Smith Murdock Company LLC,591 Jeffersonville North Branch Rd,North Branch,NY,13408,591 Jeffersonville North Branch Rd North Branch NY 13408 ,41.8016350,-74.9676889,,4.00,,
For the Birds Farm,5027 Waterburg Road,Trumansburg,NY,13408,5027 Waterburg Road Trumansburg NY 13408 ,42.5067900,-76.6760094,,1.00,,
NG Growers Inc. dba Nanticoke Gardens,1543 Union Center Maine Hwy,Endicott,NY,13408,1543 Union Center Maine Hwy Endicott NY 13408 ,42.1276226,-76.0660772,"114,000.00",50.00,"40,091.00",
Wheatfield Gardens LLC,7341 Shawnee Road,North Tonawanda,NY,13408,7341 Shawnee Road North Tonawanda NY 13408 ,43.0670990,-78.8309320,"662,600.00",,"294,511.00",
High Peaks Solar LLC,180 Main Avenue,Wynantskill,NY,13408,180 Main Avenue Wynantskill NY 13408 ,42.6943831,-73.6364661,,0.00,,
Berkshire Hemp LLC,7 Cunningham Hill Road,Canaan,NY,13408,7 Cunningham Hill Road Canaan NY 13408 ,42.3844424,-73.4144528,,38.00,,
Plant Science Laboratories Affiliated Grower - Don Spoth,2715 Tonawanda Creek,Amherst,NY,13408,2715 Tonawanda Creek Amherst NY 13408 ,43.0681581,-78.7496355,,60.00,,
New York Hemp Alliance,9 Mountain View Drive,Campbell Hall,NY,13408,9 Mountain View Drive Campbell Hall NY 13408 ,41.4175686,-74.2333165,"32,000.00",14.00,,
New York Hemp Alliance Affiliated Grower - Alps Farm,282 Eiklor Road,Candor,NY,13408,282 Eiklor Road Candor NY 13408 ,42.1773488,-76.3580166,,3.00,,
Tricolla Farms LLC,431 Back West Creek Road,Berkshire,NY,13408,431 Back West Creek Road Berkshire NY 13408 ,42.2477908,-76.2414472,"18,000.00",11.00,,1.00
Plant Science Laboratories Affiliated Grower - Rural Resurgence,8501 Maples Rd,Little Valley,NY,13408,8501 Maples Rd Little Valley NY 13408 ,42.3496550,-78.7922891,,10.00,,
Chessworth Farms,23499 Swan Road,Watertown,NY,13408,23499 Swan Road Watertown NY 13408 ,43.9250339,-75.9040610,,27.00,,
Meadeville Farm,864 Gravel Road,Seneca Falls,NY,13408,864 Gravel Road Seneca Falls NY 13408 ,42.9845782,-76.8016056,,2.00,,
Traitz Agriculture LLC,578 Stony Creek Road,Hadley,NY,13408,578 Stony Creek Road Hadley NY 13408 ,43.3508447,-73.8737217,,105.00,,
US Hempire Corp,26 Oil City Road,Pine Island,NY,13408,26 Oil City Road Pine Island NY 13408 ,41.2814056,-74.5143080,,5.00,,3.00
HempChain Farms LLC,475 Green Hollow Road,Berlin,NY,13408,475 Green Hollow Road Berlin NY 13408 ,42.7077860,-73.3399120,"22,000.00",48.00,"15,000.00",
Plant Science Laboratories Affiliated Grower - Yager Farm,2132 New Jerusalem Rd,Eden,NY,13408,2132 New Jerusalem Rd Eden NY 13408 ,42.6381241,-78.9351222,,28.00,,
Coryell Farms,1450 Coryell Road,Nichols,NY,13408,1450 Coryell Road Nichols NY 13408 ,42.0164140,-76.4135010,"3,000.00",7.00,,
Landline Farm,990 Thatcher Park Road,East Berne,NY,13408,990 Thatcher Park Road East Berne NY 13408 ,42.6520880,-74.0302610,100.00,,,
Lisa & Brandon Kapoor,920 Edie Road,Argyle,NY,13408,920 Edie Road Argyle NY 13408 ,43.1578850,-73.4898560,"1,675.00",7.00,"43,560.00",1.25
The Veterans Cannabis Collective Foundation Inc.,1053 County Route 6,Fulton,NY,13408,1053 County Route 6 Fulton NY 13408 ,43.3163647,-76.3554991,"10,760.00",30.00,,
VCCF Affiliated Grower Creekside Cattle Company,22 Gibson Street,Bergen,NY,13408,22 Gibson Street Bergen NY 13408 ,43.0877009,-77.9452868,,0.00,,
Fenco Hemp LLC,6238 Route 96,Romulus,NY,13408,6238 Route 96 Romulus NY 13408 ,42.7219771,-76.8265480,,25.00,,
dba Sullivan County Organics,131 William Brown Road,Hankins,NY,13408,131 William Brown Road Hankins NY 13408 ,41.8439666,-75.0651529,"8,280.00",0.00,,
Kobylin Co.,756 Canaan Road,Canaan,NY,13408,756 Canaan Road Canaan NY 13408 ,42.4523760,-73.4159800,"3,600.00",17.00,,
Empire Hemp Company (DBA),16271 Canal Road,Holley,NY,13408,16271 Canal Road Holley NY 13408 ,43.2547830,-78.0672920,500.00,,,
Homestead Hemp,821 Chamberlain Mill Road,Salem,NY,13408,821 Chamberlain Mill Road Salem NY 13408 ,43.2550980,-73.3189406,"2,010.00",5.00,,0.00
FarmOn! Foundation,556 Empire Road,Copake,NY,13408,556 Empire Road Copake NY 13408 ,42.0984775,-73.5523501,,190.00,"9,000.00",8.00
PhytoGene Bioscience LLC,2296 Sound Avenue,Calverton,NY,13408,2296 Sound Avenue Calverton NY 13408 ,40.9564487,-72.7480215,"45,000.00",100.00,,
Open Minded Organics LLC,PO Box 302,Sag Harbor,NY,13408,PO Box 302 Sag Harbor NY 13408 ,40.9978773,-72.2925819,"7,102.00",18.00,108.00,2.54
Clements Agricultural Research Institute,"912 Main Street, P.O. Box 213",Morristown,NY,13408,"912 Main Street, P.O. Box 213 Morristown NY 13408 ",44.5864488,-75.6482908,,30.00,,
Vincek Farm,23 Daniels Road,Saratoga Springs,NY,13408,23 Daniels Road Saratoga Springs NY 13408 ,43.1119586,-73.7741927,"2,000.00",0.00,0.00,0.14
HR Botanicals LLC,298 Basket Road,Long Eddy,NY,13408,298 Basket Road Long Eddy NY 13408 ,41.8687400,-75.0787180,,0.00,,0.20
PhytoGene Bioscience LLC Aﬃliated Grower - Wessels Farms,94 Bull Road,Otisville,NY,13408,94 Bull Road Otisville NY 13408 ,41.4790459,-74.5177960,"44,000.00",,,
Rick Minkus Farms Inc.,101 Celery Avenue,New Hampton,NY,13408,101 Celery Avenue New Hampton NY 13408 ,41.3668792,-74.4196322,,,,
PhytoGene Bioscience LLC Aﬃliated Grower - Minkus Family Farms,317 Maple Ave,New Hampton,NY,13408,317 Maple Ave New Hampton NY 13408 ,41.3785029,-74.4083181,,0.00,,
Green Wells Venture LLC,808 Brickell Key Drive #701,Miami,FL,13408,808 Brickell Key Drive #701 Miami FL 13408 ,25.7690258,-80.1835969,,90.00,,69.00
1776 Hemp LLC,391 County Road 106,Johnstown,NY,13408,391 County Road 106 Johnstown NY 13408 ,43.0344530,-74.2447660,,18.00,,
Jone Z Farms LLC,5020 Foster Road,Canandaigua,NY,13408,5020 Foster Road Canandaigua NY 13408 ,42.8174847,-77.2895626,"22,600.00",46.00,500.00,22.58
Ronald J Sherman,2171 State Route 417,Greenwood,NY,13408,2171 State Route 417 Greenwood NY 13408 ,42.1205152,-77.6069137,,4.00,,
Dean Ford & Sons Dairy Farm,284 Hortons Road,Westtown,NY,13408,284 Hortons Road Westtown NY 13408 ,41.3506678,-74.5140163,,0.00,,
GoPap Synthesis,"169 Milbank Ave, Unit West",Greenwich,CT,13408,"169 Milbank Ave, Unit West Greenwich CT 13408 ",41.0290820,-73.6215272,,,,
Michael Geraci,6560 Wetherole Street,Rego Park,NY,13408,6560 Wetherole Street Rego Park NY 13408 ,40.7259154,-73.8584558,,29.00,,
Grow Hemp New York LLC Aﬃliated Grower - Julie Ann's Vegetable and Honey Farm LLC,89 Frost Road,Windsor,NY,13408,89 Frost Road Windsor NY 13408 ,42.0873070,-75.7698640,,0.00,,
High End Group Affiliated Grower - Ithaca Organics,316 Cortland Road,Freeville,NY,13408,316 Cortland Road Freeville NY 13408 ,42.5209794,-76.2788135,,0.00,,
High End Group Affiliated Grower - Full Spectrum Farm,236 Fish Road,Ithaca,NY,13408,236 Fish Road Ithaca NY 13408 ,42.4406630,-76.6504080,,2.00,,
Hemp Productions Inc.,884-886 Noxon Road,Poughkeepsie,NY,13408,884-886 Noxon Road Poughkeepsie NY 13408 ,41.6398935,-73.8067069,"20,000.00",435.00,,95.00
High Falls Agriculture LLC,641 Berme Road,High Falls,NY,13408,641 Berme Road High Falls NY 13408 ,41.8044344,-74.1682869,"4,000.00",13.00,0.00,2.05
Old Mud Creek Farm LLC Affiliated Grower - Stone House Grain,3161 US Route 9,Hudson,NY,13408,3161 US Route 9 Hudson NY 13408 ,42.1612396,-73.7708144,,49.00,,24.00
High Falls Agriculture LLC Affiliated Grower - Veronica's Gardens,110 Kripple Bush Road,Stone Ridge,NY,13408,110 Kripple Bush Road Stone Ridge NY 13408 ,41.8374303,-74.1871263,0.00,,,
Southern Tier Hemp,333 West Washington Street Suite 600,Syracuse,NY,13408,333 West Washington Street Suite 600 Syracuse NY 13408 ,43.0493900,-76.1559843,,0.00,,
High Falls Agriculture LLC Affiliated Grower - All Hat No Cattle Ranch,6734 Route 209,Kerhonkson,NY,13408,6734 Route 209 Kerhonkson NY 13408 ,41.7706705,-74.3315183,,0.00,,
High Falls Agriculture LLC Affiliated Grower - George (Skip) Larrabbee,447 Pine Bush Road,Stone Ridge,NY,13408,447 Pine Bush Road Stone Ridge NY 13408 ,41.8374728,-74.1790198,,4.00,,
High Falls Agriculture LLC Affiliated Grower - Patricia A Horst,641 Berme Road,High Falls,NY,13408,641 Berme Road High Falls NY 13408 ,41.8044344,-74.1682869,,0.00,,
Healthy Farms LLC,68 Lake Road,Webster,NY,13408,68 Lake Road Webster NY 13408 ,43.2357188,-77.5311426,,5.00,,
Full Spectrum Extract LLC,195 Broadway Third Floor,Brooklyn,NY,13408,195 Broadway Third Floor Brooklyn NY 13408 ,40.7107732,-74.0095804,,,,
Clearbrook Farm of Orange County LLC,1345 6th Avenue,New York,NY,13408,1345 6th Avenue New York NY 13408 ,40.7627783,-73.9785292,"110,000.00",2.00,"85,500.00",
Spadafarm,12 Alley Road,Lagrangeville,NY,13408,12 Alley Road Lagrangeville NY 13408 ,41.6657348,-73.7662367,"80,000.00",12.00,,
Southern Tier Hemp Affiliated Grower - Lake Breeze Farms LLC,PO Box 123,Cato,NY,13408,PO Box 123 Cato NY 13408 ,42.9026924,-75.6440842,,80.00,,
NY Hemp Source LLC Affiliated Grower - S&SO Produce Farms LLC,234 Mt. Eve Road,Goshen,NY,13408,234 Mt. Eve Road Goshen NY 13408 ,41.3162042,-74.4145707,,21.00,,
SunBeam Laboratories LLC,6150 Donner Road,Lockport,NY,13408,6150 Donner Road Lockport NY 13408 ,43.1229855,-78.6996098,"29,024.00",1.00,,
Ringhoff Farms,County Road 51 and County Road 111,Eastport,NY,13408,County Road 51 and County Road 111 Eastport NY 13408 ,40.8467418,-72.7349639,,,,
High End Group Affiliated Grower - Jacob McGlashon,210 Ketchumville Road,Berkshire,NY,13408,210 Ketchumville Road Berkshire NY 13408 ,42.2714960,-76.1509380,,5.00,,
High End Group Affiliated Grower - Shining Star Farm,463 Valley Road,Brooktondale,NY,13408,463 Valley Road Brooktondale NY 13408 ,42.3795294,-76.3995055,,4.00,,
Denice Davis LLC,158 Pulaski Highway,Pine Island,NY,13408,158 Pulaski Highway Pine Island NY 13408 ,41.3023059,-74.4495859,,1.00,,0.00
Cornell University Affiliated Grower - John Henion,435 Iradell Road,Trumansburg,NY,13408,435 Iradell Road Trumansburg NY 13408 ,42.4798889,-76.6268970,,0.00,,
NY Hemp Source LLC,"445 5th Avenue, Suite 9",New York,NY,13408,"445 5th Avenue, Suite 9 New York NY 13408 ",40.7515948,-73.9817548,,98.00,,
High End Group Affiliated Grower - Castetter Sustainability Group Inc.,120 Hawley Street,Binghamton,NY,13408,120 Hawley Street Binghamton NY 13408 ,42.0976132,-75.9079893,,0.00,,
High End Group Affiliated Grower - Goatwell Farms LLC,3961 County Road 4,Canandaigua,NY,13408,3961 County Road 4 Canandaigua NY 13408 ,42.8985080,-77.2169640,,5.00,,
High End Group Affiliated Grower - Kasland Properties,431 Brotzman Road,Binghamton,NY,13408,431 Brotzman Road Binghamton NY 13408 ,42.2002990,-75.8922460,,5.00,,
Michael I. Casper Inc. Affiliated Grower - Earlybird Farms,806 Elmira Road,Ithaca,NY,13408,806 Elmira Road Ithaca NY 13408 ,42.4067932,-76.5455718,"3,000.00",,,
Hemped Up LLC,1174 Route 29,Schuylerville,NY,13408,1174 Route 29 Schuylerville NY 13408 ,43.1000755,-73.5817825,,3.00,,
PhytoGene Bioscience LLC Affiliated Grower - Top Bud Inc.,21 Sturr Lane,Florida,NY,13408,21 Sturr Lane Florida NY 13408 ,41.3250624,-74.3644519,,34.00,,
Dancing Turtle,565 Midline Road,Freeville,NY,13408,565 Midline Road Freeville NY 13408 ,42.4287080,-76.3422070,0.00,5.00,,
Ananda Farms,69 Wilcox Road,Fulton,NY,13408,69 Wilcox Road Fulton NY 13408 ,43.2735690,-76.3969480,"26,000.00",42.00,"10,500.00",44.00
North Forty Flower Farm,PO Box 26,Speonk,NY,13408,PO Box 26 Speonk NY 13408 ,40.8348940,-72.6919814,,10.00,,
Old Mud Creek Farm LLC Affiliated Grower - Sky Farm Inc.,1395 Boston Corners Road,Millerton,NY,13408,1395 Boston Corners Road Millerton NY 13408 ,42.0206192,-73.5106130,,2.00,,
Great Lakes Hemp LLC,PO Box 361,Westfield,NY,13408,PO Box 361 Westfield NY 13408 ,42.3222800,-79.5781027,,25.00,,
Breathable Cities LLC,121 Goodrich Avenue,Syracuse,NY,13408,121 Goodrich Avenue Syracuse NY 13408 ,43.0206383,-76.1268198,,100.00,,40.00
Plant Science Laboratories Affiliated Grower - Charles Lyndaker,8746 Lake Road,Barker,NY,13408,8746 Lake Road Barker NY 13408 ,43.3436809,-78.5411680,,54.00,,
Old Mud Creek Farm LLC Affiliated Grower - Earthborn Garden,278 Mitchell Street,Hillsdale,NY,13408,278 Mitchell Street Hillsdale NY 13408 ,42.2013170,-73.4797990,,0.00,,0.14
SUNY Cobleskill,114 Rockland Lane,Cobleskill,NY,13408,114 Rockland Lane Cobleskill NY 13408 ,42.6704238,-74.5034967,"1,200.00",0.00,515.00,0.00
Plant Science Laboratories Affiliated Grower - Be Well LLC,120 East Oak Street,Olean,NY,13408,120 East Oak Street Olean NY 13408 ,42.0944109,-78.4353820,,0.00,,
Endoca LLC,500 Technology Farm Drive,Geneva,NY,13408,500 Technology Farm Drive Geneva NY 13408 ,42.8723451,-77.0082756,,0.00,,
Grow Hemp New York LLC,17 Roberts Road,Windsor,NY,13408,17 Roberts Road Windsor NY 13408 ,42.0917180,-75.7411380,0.00,332.00,,
Plant Science Laboratories Affiliated Grower - Anchor Farms Inc.,11000 Clarence Center Road,Akron,NY,13408,11000 Clarence Center Road Akron NY 13408 ,43.0095860,-78.5766867,,0.00,,
BioSoil Farm Inc.,204 Glenville Industrial Park,Glenville,NY,13408,204 Glenville Industrial Park Glenville NY 13408 ,42.9292419,-74.0520717,"24,400.00",400.00,,
Old Mud Creek Farm LLC Affiliated Grower - Camphill Village USA,84 Camphill Village Road,Copake,NY,13408,84 Camphill Village Road Copake NY 13408 ,42.1034549,-73.5499249,,0.00,,
Hempchain Affiliated Grower - SAF Produce,16 Satterlee Hollow Road,Berlin,NY,13408,16 Satterlee Hollow Road Berlin NY 13408 ,42.7005370,-73.3753600,,0.00,,
Castetter Sustainability Group,29 Industrial Park Drive,Binghamton,NY,13408,29 Industrial Park Drive Binghamton NY 13408 ,42.1031540,-75.8324986,"75,600.00",,,
Flower City Solutions,620 Park Ave Suite 106,Rochester,NY,13408,620 Park Ave Suite 106 Rochester NY 13408 ,43.1487967,-77.5788117,,0.00,,
East End Flower Farm Ltd.,74 River Road,Shirley,NY,13408,74 River Road Shirley NY 13408 ,40.8062773,-72.8823319,260.00,28.00,,1.00
Three Cord Ranch,1537 Sturgeon Point Road,Derby,NY,13408,1537 Sturgeon Point Road Derby NY 13408 ,42.6780961,-78.9767452,"226,260.00",7.00,"6,800.00",1.50
SUNY Morrisville Affiliated Grower - Laura Ten Eyck,287 Altamont Road,Altamont,NY,13408,287 Altamont Road Altamont NY 13408 ,42.6590725,-73.9710881,,0.00,,
Sparkle Holdings LLC,"17 Prince Street, Second Floor",Rochester,NY,13408,"17 Prince Street, Second Floor Rochester NY 13408 ",43.1569335,-77.5915465,"152,000.00",13.00,,
SUNY Morrisville Affiliated Grower - Robert & Jeff Milavec Farm,185 Tuscan Road,Worcester,NY,13408,185 Tuscan Road Worcester NY 13408 ,42.5843360,-74.7773490,,13.00,,
Hempability,150 Pitcher Lane,Red Hook,NY,13408,150 Pitcher Lane Red Hook NY 13408 ,42.0262939,-73.8615345,"9,000.00",11.00,,
SUNY Morrisville Affiliated Grower - George Neider,8575 Penoyer Road,Fabius,NY,13408,8575 Penoyer Road Fabius NY 13408 ,42.8536340,-75.9372730,,0.00,,
GoPap Synthesis Affiliated Grower - Black Pheasant Farm,3506 Route 22,Dover Plains,NY,13408,3506 Route 22 Dover Plains NY 13408 ,41.7646910,-73.5739250,,0.00,,
New York Hemp Alliance Affiliated Grower - Joe Montana,1100 West Kill Road,North Blenheim,NY,13408,1100 West Kill Road North Blenheim NY 13408 ,42.4917960,-74.5291900,,0.00,,1.00
Beezy Beez Honey Inc.,3773 D Victory Boulevard,Staten Island,NY,13408,3773 D Victory Boulevard Staten Island NY 13408 ,40.5976742,-74.1817488,,0.00,,
Tongore Brook Farm LLC,84 Woodland Road,Stone Ridge,NY,13408,84 Woodland Road Stone Ridge NY 13408 ,41.8913210,-74.2196980,0.00,,,
Mayfair Farms LLC,11645 State Route 23,Ashland,NY,13408,11645 State Route 23 Ashland NY 13408 ,42.2992575,-74.3150530,,0.00,,
Sparkle Holdings LLC Affiliated Grower - Plant Connection Inc.,5873 Sound Ave,Riverhead,NY,13408,5873 Sound Ave Riverhead NY 13408 ,40.9796895,-72.5990631,,0.00,,
CSC Farms,6506 Peterboro Road,Oneida,NY,13408,6506 Peterboro Road Oneida NY 13408 ,43.0283260,-75.6293190,,0.00,,
NAHE LLC,1 Vapor Trail,Hudson,NY,13408,1 Vapor Trail Hudson NY 13408 ,42.2528649,-73.7909590,"18,000.00",106.00,"18,000.00",0.42
Hempstead Acres,129 Brown Road,Kirkwood,NY,13408,129 Brown Road Kirkwood NY 13408 ,42.0666370,-75.7475140,"12,675.00",17.00,,
Jay Stucky Affiliated Grower - Nickel A Day Farm,2539 Vinyard Road,Romulus,NY,13408,2539 Vinyard Road Romulus NY 13408 ,42.7386729,-76.8009196,,0.00,,
Morrisville State College Affiliated Grower - Frederick P. Davies,210 East Fayette Street,Syracuse,NY,13408,210 East Fayette Street Syracuse NY 13408 ,43.0484553,-76.1502662,,0.00,,
Hemp Division Inc.,6075 Route 22,Millerton,NY,13408,6075 Route 22 Millerton NY 13408 ,41.9663441,-73.5248561,,12.00,,11.99
Organized Alliance LLC,8999 Route 353,Gowanda,NY,13408,8999 Route 353 Gowanda NY 13408 ,42.4339059,-78.9440775,,0.00,,
Pioneer Plant-tech Inc.,10703 Miller Road,Utica,NY,13408,10703 Miller Road Utica NY 13408 ,43.1722694,-75.1788988,"3,000.00",,,
Bield Farm,90 Germond Road,Clinton Corners,NY,13408,90 Germond Road Clinton Corners NY 13408 ,41.8382095,-73.7750218,,5.00,,
Forest Springs Farm LLC,7574 Watson Road,Ellicottville,NY,13408,7574 Watson Road Ellicottville NY 13408 ,42.2887050,-78.7354000,,19.00,,
Langdonhurst Farms LLC,1601 County Route 7A,Copake,NY,13408,1601 County Route 7A Copake NY 13408 ,42.1039822,-73.5569850,"25,000.00",70.00,,0.11
Enfield Glen Hopyard,260 Hines Road,Newfield,NY,13408,260 Hines Road Newfield NY 13408 ,42.3994584,-76.6151527,"3,400.00",2.00,"1,200.00",7.32
Hilltop Hemp Farms,74 Ferris Lane,Poughkeepsie,NY,13408,74 Ferris Lane Poughkeepsie NY 13408 ,41.6831665,-73.9191042,"13,600.00",22.00,400.00,0.50
Nelson Ave Stable LLC,2104 Rowley Road,Malta,NY,13408,2104 Rowley Road Malta NY 13408 ,42.9854395,-73.7868236,"2,400.00",3.50,,15.45
Beak & Skiff Growers LLC,4472 US Route 20,Lafayette,NY,13408,4472 US Route 20 Lafayette NY 13408 ,42.9026924,-75.6440842,,161.00,,27.00
Octagon Organics LLC,421 Broad Street,Utica,NY,13408,421 Broad Street Utica NY 13408 ,43.1025855,-75.2215152,"10,400.00",13.00,,0.00
Emily Krolian,46 Cary Street,Buffalo,NY,13408,46 Cary Street Buffalo NY 13408 ,42.8902199,-78.8788454,,30.00,,
Hemp at Action Acres LLC (formerly Action Acres),374 Scotch Hill Road,Cambridge,NY,13408,374 Scotch Hill Road Cambridge NY 13408 ,43.1216689,-73.3688664,2.00,121.00,"9,884.50",36.00
Growing Family Farms,602 Peck Road,Spencerport,NY,13408,602 Peck Road Spencerport NY 13408 ,43.2451230,-77.7901820,"12,550.00",1.00,"3,000.00",0.16
WH Vanderhoof Drilling,48 Camptown Road,Waverly,NY,14892,48 Camptown Road Waverly NY 14892 ,42.0544230,-76.5400090,,2.00,,
Julie Ann's Vegetable and Honey Farm LLC,89 Frost Road,Windsor,NY,13865,89 Frost Road Windsor NY 13865 ,42.0873070,-75.7698640,"7,044.00",10.00,"1,248.00",2.25
S&SO Produce Farms LLC,234 Mt. Eve Road,Goshen,NY,10924,234 Mt. Eve Road Goshen NY 10924 ,41.3162042,-74.4145707,"44,000.00",52.00,"3,400.00",
Meyer Dairy Farms LLC,3224 Humphrey Road,Varysburg,NY,14167,3224 Humphrey Road Varysburg NY 14167 ,42.7277410,-78.3654260,,38.00,,2.25
Weathertop Farm LLC,5907 State Route 145,Sharon Springs,NY,13459,5907 State Route 145 Sharon Springs NY 13459 ,42.7557940,-74.5323949,"2,920.00",2.00,12.00,0.09
Skeeterboro Farms LLC,6799 State Route 233,Rome,NY,13440,6799 State Route 233 Rome NY 13440 ,43.1695185,-75.4171882,"5,150.00",49.00,,2.00
Lenore A. Snyder,110 Bryce Road,Windsor,NY,13865,110 Bryce Road Windsor NY 13865 ,42.0999210,-75.5174030,"13,800.00",1.00,10.00,0.00
Pine Rose Farm LLC,5186 Pine Ridge Road,Trumansburg,NY,14886,5186 Pine Ridge Road Trumansburg NY 14886 ,42.4973397,-76.6608311,"64,060.00",243.00,"2,337.00",44.65
Larchwood Farms,3024 Slaterville Road,Brooktondale,NY,14817,3024 Slaterville Road Brooktondale NY 14817 ,42.3865208,-76.3192461,"26,987.00",101.00,"2,111.00",14.00
East End Agriculture LLC,PO Box 92,Aquebogue,NY,11931,PO Box 92 Aquebogue NY 11931 ,40.9533300,-72.6328569,"2,000.00",5.00,,
New York Hemp Service LLC,4269 Route 9,Hudson,NY,12534,4269 Route 9 Hudson NY 12534 ,42.2153626,-73.7897470,"160,000.00",75.00,"45,380.00",4.00
Elk Creek Farm,337 County Highway 34,Schenevus,NY,12155,337 County Highway 34 Schenevus NY 12155 ,42.5489656,-74.8209875,240.00,9.00,240.00,12.13
Paul Winter Farms,5930 Newton Road,Orchard Park,NY,14127,5930 Newton Road Orchard Park NY 14127 ,42.7245394,-78.7687622,,80.00,,
Earlybird Farm,806 Elmira Road,Ithaca,NY,14850,806 Elmira Road Ithaca NY 14850 ,42.4067932,-76.5455718,"2,500.00",25.00,,0.00
Miller Organic,2152 Oak Orchard Road,Albion,NY,14411,2152 Oak Orchard Road Albion NY 14411 ,43.3118293,-78.2028171,"1,248.00",4.00,,0.63
No-Mo Farm Co. LLC,1379 North Road,Greenwich,NY,12834,1379 North Road Greenwich NY 12834 ,43.1776660,-73.4508840,,12.00,,
Hemppire Farms,546 Jewett Hill Road,Berkshire,NY,13736,546 Jewett Hill Road Berkshire NY 13736 ,42.3294580,-76.2179410,"5,696.00",25.00,,8.00
Lamport Farms,13691 County Highway 18,Hobart,NY,13788,13691 County Highway 18 Hobart NY 13788 ,42.3714704,-74.6704311,"7,000.00",112.00,,11.50
Migliorelli Farm LLC,46 Freeborn Lane,Tivoli,NY,12583,46 Freeborn Lane Tivoli NY 12583 ,42.0564646,-73.8663729,,50.00,,
Hillberry,785 Jewett Hill Road,Berkshire,NY,13736,785 Jewett Hill Road Berkshire NY 13736 ,42.3292426,-76.2389161,,15.00,,4.00
East Branch Holdings LLC,1471 Peas Eddy Road,Hancock,NY,13783,1471 Peas Eddy Road Hancock NY 13783 ,41.9613350,-75.2523310,"176,740.00",35.00,266.00,0.00
Next Gen Hemp Growers LLC,1074 Co Road 39,Bainbridge,NY,13733,1074 Co Road 39 Bainbridge NY 13733 ,42.2763055,-75.4722273,800.00,5.00,40.00,0.00
Henry E. Beiler,5918 Route 414,Romulus,NY,14541,5918 Route 414 Romulus NY 14541 ,42.7370690,-76.8232139,,2.00,,
M&M Produce Farms & Sales LLC,401 Pulaski Highway,Goshen,NY,10924,401 Pulaski Highway Goshen NY 10924 ,41.3182451,-74.4416629,,45.00,"3,400.00",
Robert O Davenport and Sons LLC,2100 Hurley Mountain Road,Kingston,NY,12401,2100 Hurley Mountain Road Kingston NY 12401 ,41.8989750,-74.1086760,,25.00,,
RWHemp,5052 State Route 5,Vernon,NY,13476,5052 State Route 5 Vernon NY 13476 ,43.0753972,-75.5526658,840.00,2.00,1.00,1.00
Wessels' Farms Inc.,94 Bull Road,Otisville,NY,10963,94 Bull Road Otisville NY 10963 ,41.4790459,-74.5177960,"300,000.00",,"36,000.00",
Flyer Farms,12 Amber Lane,Oyster Bay,NY,11771,12 Amber Lane Oyster Bay NY 11771 ,40.8496632,-73.5114184,,50.00,,
Arouca Farms Inc.,"605 East 132nd Street, Suite 505",Bronx,NY,10454,"605 East 132nd Street, Suite 505 Bronx NY 10454 ",40.8025448,-73.9187597,,3.00,,
Top Bud Inc.,21 Sturr Lane,Florida,NY,10921,21 Sturr Lane Florida NY 10921 ,41.3250624,-74.3644519,,425.00,,
Ludo's Thick and Thin Lumber Farm,23 Bittersweet Way,Warwick,NY,10990,23 Bittersweet Way Warwick NY 10990 ,41.2292370,-74.3750589,,,,
Kenneth A. Henry Sons Inc.,6951 Gowanda State Road,Hamburg,NY,14075,6951 Gowanda State Road Hamburg NY 14075 ,42.6980817,-78.8531939,0.00,20.00,,
Miss Perry Farms LLC,9767 Starr Hill Road,Remsen,NY,13438,9767 Starr Hill Road Remsen NY 13438 ,43.3455350,-75.2382949,"2,880.00",157.00,"5,700.00",
Dennis Van Wagenen,308 Van Wagenen Lane,Kingston,NY,12401,308 Van Wagenen Lane Kingston NY 12401 ,41.8828896,-74.1437000,"8,482.00",4.00,672.00,6.55
Scarp Farm LLC,22017 State Route 22,Hoosick Falls,NY,12090,22017 State Route 22 Hoosick Falls NY 12090 ,42.9208519,-73.3546180,300.00,10.00,300.00,1.00
Bone Creek Farm LLC,231 Shaver Hill Road,Deposit,NY,13754,231 Shaver Hill Road Deposit NY 13754 ,42.0711760,-75.4436170,980.00,4.00,120.00,4.00
Mediiusa,580 Fifth Avenue #1720,New York City,NY,10036,580 Fifth Avenue #1720 New York City NY 10036 ,40.7569345,-73.9786990,,90.00,"2,400.00",15.00
Swerve Ranch,2856 Hathaway Road,Moravia,NY,13118,2856 Hathaway Road Moravia NY 13118 ,42.7553010,-76.3588020,360.00,2.00,,0.00
Richard Lacey (Lacey Farms),1192 Silver Lake Road,Pavilion,NY,14525,1192 Silver Lake Road Pavilion NY 14525 ,42.8234250,-78.0258040,,23.00,,
Natural Remedies LLC,8940 Main Street,Clarence,NY,14031,8940 Main Street Clarence NY 14031 ,42.9676944,-78.6591751,,25.00,,
State Line Orchard/ Windsor Cider LLC,234 State Line Road,Windsor,NY,13865,234 State Line Road Windsor NY 13865 ,42.0091720,-75.6054900,"3,000.00",10.00,,
Rural Resurgence LLC,8501 Maples Road,Little Valley,NY,14775,8501 Maples Road Little Valley NY 14775 ,42.3496550,-78.7922891,"5,800.00",27.00,,0.00
SAF NY Realty Co. LLC,16 Satterlee Hollow Road,Berlin,NY,12022,16 Satterlee Hollow Road Berlin NY 12022 ,42.7005370,-73.3753600,"131,000.00",25.00,"18,240.00",
Pennings Meadows LLC,125 Sanfordville Road,Warwick,NY,10990,125 Sanfordville Road Warwick NY 10990 ,41.2473389,-74.3869160,,10.00,,1.75
D&H Acres,89 Hurlbert Hollow Road,Spencer,NY,14883,89 Hurlbert Hollow Road Spencer NY 14883 ,42.2097963,-76.4932748,,19.00,,
Joseph DiSalvo Farms Inc.,224 Island Road,Phoenix,NY,13135,224 Island Road Phoenix NY 13135 ,43.3302531,-76.2648271,,60.00,,
Field & Stone Ventures LLC,30 Cape Horn Road,Bovina Center,NY,13740,30 Cape Horn Road Bovina Center NY 13740 ,42.2810104,-74.7111220,,51.00,,
Levi B Esh,2033 Yerkes Road,Romulus,NY,14541,2033 Yerkes Road Romulus NY 14541 ,42.7330636,-76.8309703,"2,880.00",158.00,,
Eretz Goshen Farms Inc.,71 Dzierzek Lane,New Hampton,NY,10958,71 Dzierzek Lane New Hampton NY 10958 ,41.3904752,-74.3834199,"4,920.00",60.00,32.00,0.00
Warphy Corporation,161 Mohonk Road,High Falls,NY,12440,161 Mohonk Road High Falls NY 12440 ,41.8191940,-74.1235100,,2.00,,0.00
Luff Farms Inc.,21272 South Shore Road,Three Mile Bay,NY,13693,21272 South Shore Road Three Mile Bay NY 13693 ,43.9831240,-76.2675309,,9.00,,
Hemp House (Jennifer C Roberts),158 Mildahn Road,Macedon,NY,14502,158 Mildahn Road Macedon NY 14502 ,43.1253995,-77.3696102,,0.00,,
Volga-Dutch Farm,75 Little York Road,Warwick,NY,10990,75 Little York Road Warwick NY 10990 ,41.2909913,-74.4458305,"1,602.00",8.00,,2.20
Henry's Gardens Inc.,7884 Sisson Highway,Eden,NY,14057,7884 Sisson Highway Eden NY 14057 ,42.6730649,-78.8571305,,10.00,,
Hemp Industry Consultants Inc.,9 Rustic Gate Lane,Dix Hills,NY,11746,9 Rustic Gate Lane Dix Hills NY 11746 ,40.7869807,-73.3594563,"7,000.00",20.00,536.00,10.00
Sky High,133-18 132nd Street,Ozone Park,NY,11420,133-18 132nd Street Ozone Park NY 11420 ,40.6687418,-73.8071103,"3,500.00",,,
Monument Mountain Farms LLC,48 Roberts Road,Windsor,NY,13865,48 Roberts Road Windsor NY 13865 ,42.0899452,-75.7376714,"28,000.00",51.00,360.00,7.75
Overdale Farms,3018 North Road,Vernon Center,NY,13477,3018 North Road Vernon Center NY 13477 ,43.0088334,-75.5164102,512.00,7.00,500.00,2.00
Maple Ridge Farm 1878 LLC,3446 Williams Corners Road,Morrisville,NY,13408,3446 Williams Corners Road Morrisville NY 13408 ,42.8825460,-75.6887480,,30.00,,
Integrated MD Solutions LLC,11 Sunset Drive,Latham,NY,12110,11 Sunset Drive Latham NY 12110 ,42.7513724,-73.7619281,"23,000.00",60.00,,
HIP NY Developments LLC,1303 Pleasant Hill Road,Fleetwood,NY,19522,1303 Pleasant Hill Road Fleetwood NY 19522 ,40.4702649,-75.8787244,,132.00,,
MedFarm Inc.,2424 West Bayshore Boulevard #G103,Tampa,FL,33607,2424 West Bayshore Boulevard #G103 Tampa FL 33607 ,27.9307779,-82.4746473,"10,200.00",127.00,,
Welles Farm,3087 Lower Maples Avenue,Elmira,NY,14901,3087 Lower Maples Avenue Elmira NY 14901 ,42.0438712,-76.7664689,"13,942.00",181.00,,
Jon Von Okenfus,3202 North Rome Avenue,Tampa,FL,33607,3202 North Rome Avenue Tampa FL 33607 ,27.9684053,-82.4780742,"6,260.00",3.00,,
Sugarhouse Farms LLC,4259 State Highway 205,Hartwick,NY,13348,4259 State Highway 205 Hartwick NY 13348 ,42.7027710,-75.0523740,630.00,33.00,"1,310.00",17.00
Slack Hollow Farm,177 Gilchrist Road,Argyle,NY,12809,177 Gilchrist Road Argyle NY 12809 ,43.2575650,-73.4089769,"13,420.00",4.75,"4,513.20",3.35
Aged Iron Farm,3847 Eaton Brook Road,Erieville,NY,13061,3847 Eaton Brook Road Erieville NY 13061 ,42.8525720,-75.7439100,,7.00,,
Apricity Inc.,18 Roberta Drive,Cortlandt Manor,NY,10567,18 Roberta Drive Cortlandt Manor NY 10567 ,41.2481206,-73.9010076,,47.00,,
M&W Agriculture LLC,176 Hall Road,Hannibal,NY,13074,176 Hall Road Hannibal NY 13074 ,43.3726170,-76.5901980,,81.00,,
Green Living Technologies International LLC,3665 St Paul Boulevard,Rochester,NY,14617,3665 St Paul Boulevard Rochester NY 14617 ,43.2226002,-77.6003827,320.00,,,
Agroforegen Inc.,493 Adsit Crosby Rd,New Marlborough,MA,1230,493 Adsit Crosby Rd New Marlborough MA 1230 ,42.1583234,-73.2731498,,5.00,,
North Windsor Berries,1609 NY Route 79,Windsor,NY,13865,1609 NY Route 79 Windsor NY 13865 ,42.0950437,-75.6411523,"1,534.00",24.00,90.00,
Joshua Goodman,1789 State Route 96A,Ovid,NY,14521,1789 State Route 96A Ovid NY 14521 ,42.6816844,-76.8476234,"10,000.00",3.72,"6,000.00",1.00
Friendly Blends,4126 Yautzy Road,Canandaigua,NY,14424,4126 Yautzy Road Canandaigua NY 14424 ,42.8300510,-77.1851358,,10.00,,
W.D. Henry and Sons Inc.,7189 Gowanda State Road,Eden,NY,14057,7189 Gowanda State Road Eden NY 14057 ,42.6879120,-78.8585320,"7,500.00",52.00,,
Route 27 Hopyard,27 Veith Avenue,Moriches,NY,11955,27 Veith Avenue Moriches NY 11955 ,40.8186114,-72.8310654,"12,980.00",5.00,"2,403.00",3.60
Frankie's Produce Farm Inc.,77 Skinner Lane,Goshen,NY,10924,77 Skinner Lane Goshen NY 10924 ,41.3232140,-74.4372331,,67.00,,
CBD Growers LLC,2407 Bacon Road,Jamestown,NY,14701,2407 Bacon Road Jamestown NY 14701 ,42.0390090,-79.2214599,"10,000.00",188.00,,
First Class Hemp,3275 Webster Road,Eden,NY,14057,3275 Webster Road Eden NY 14057 ,42.6850329,-78.8702219,"121,000.00",,"1,200.00",
Daniel Esh Farm,5839 Route 96,Romulus,NY,14541,5839 Route 96 Romulus NY 14541 ,42.7412354,-76.8323182,,3.00,,
Scarecrow Farm,351 Thielman Road,Hudson,NY,12434,351 Thielman Road Hudson NY 12434 ,42.2166990,-73.6747180,,5.00,,
M3 Agri Ventures LLC,PO Box 603,Pine Island,NY,10969,PO Box 603 Pine Island NY 10969 ,41.2978722,-74.4593240,,157.00,,
Halton Hay,2043 Main St,New Woodstock,NY,13122,2043 Main St New Woodstock NY 13122 ,42.8483074,-75.8599088,"1,000.00",7.00,,
East Coast Growth LLC,18 Churchview Lane,Pittsford,NY,14534,18 Churchview Lane Pittsford NY 14534 ,43.0794947,-77.5773673,"5,000.00",7.00,,
Willet Hop and Grain LLC,29 Arbutus Road,Johnson City,NY,13790,29 Arbutus Road Johnson City NY 13790 ,42.2073448,-75.9957126,,0.00,,
Laura Ten Eyck,287 Altamont Road,Altamont,NY,12009,287 Altamont Road Altamont NY 12009 ,42.6590725,-73.9710881,,1.00,,
GRFNY3662,123 Reynolds Drive,Eatontown,NJ,7724,123 Reynolds Drive Eatontown NJ 7724 ,40.2966784,-74.0500933,,30.00,,1.33
Bunker's Hemp LLC,180 Bullshead Road,Amsterdam,NY,12010,180 Bullshead Road Amsterdam NY 12010 ,42.8707032,-74.2035103,"30,000.00",24.00,,15.00
Bryson Clark,PO Box 336,Horseheads,NY,14845,PO Box 336 Horseheads NY 14845 ,42.1670190,-76.8205119,"11,000.00",5.00,,
Bast Family Farm,391 Sabin Road,Spencer,NY,14883,391 Sabin Road Spencer NY 14883 ,42.1983511,-76.5182257,,76.00,,
Crispell Farms,47 Hamilton Road,Brooktondale,NY,14817,47 Hamilton Road Brooktondale NY 14817 ,42.3964254,-76.3415288,,53.00,,
Morris Hemp Company,2310 Bowen Road,Elma,NY,14059,2310 Bowen Road Elma NY 14059 ,42.8343411,-78.6378569,512.00,28.00,,5.00
Dawning Farm LLC,1095 County Route 27A,Ancram,NY,12502,1095 County Route 27A Ancram NY 12502 ,42.0869961,-73.6136894,,30.00,,
Nightowl Farm LLC,178 Michigan Hollow Road,Spencer,NY,14883,178 Michigan Hollow Road Spencer NY 14883 ,42.2671060,-76.4998930,280.00,5.00,,0.50
Spadafarm LLC,12 Alley Road,Lagrangeville,NY,12540,12 Alley Road Lagrangeville NY 12540 ,41.6657348,-73.7662367,"105,000.00",27.00,,0.00
Stonewood Farm LLC,12 Alley Road,Lagrangeville,NY,12540,12 Alley Road Lagrangeville NY 12540 ,41.6657348,-73.7662367,"140,000.00",15.00,,0.00
Toro Development Inc.,46 Cary Street,Buffalo,NY,14201,46 Cary Street Buffalo NY 14201 ,42.8902199,-78.8788454,,80.00,,
Floyd Zimmerman,4175 State Route 247,Canandaigua,NY,14424,4175 State Route 247 Canandaigua NY 14424 ,42.8237716,-77.2143524,,3.00,,
Black Dirt Canna,543 County Route 62,Westtown,NY,10998,543 County Route 62 Westtown NY 10998 ,41.3367610,-74.5398821,,30.00,,1.00
Field 3 Farms LLC,"561 Broadway, STE 6D",New York,NY,10012,"561 Broadway, STE 6D New York NY 10012 ",40.7241599,-73.9982685,"100,000.00",176.00,,
Fish Farm Market,4494 Mount Payne Road,Shortville,NY,14548,4494 Mount Payne Road Shortville NY 14548 ,42.9986151,-77.2527061,"6,700.00",10.00,"1,700.00",1.00
Honey Dog Farm LLC,284 Rodman Rd,Hillsdale,NY,12529,284 Rodman Rd Hillsdale NY 12529 ,42.2049142,-73.5667284,"4,620.00",25.00,"1,010.60",2.78
Pure Functional Foods,267 State Route 89 South,Savannah,NY,13146,267 State Route 89 South Savannah NY 13146 ,43.0233009,-76.7514700,"67,736.00",250.00,,
Ithaca Organics,316 Cortland Road,Freeville,NY,13068,316 Cortland Road Freeville NY 13068 ,42.5209794,-76.2788135,"10,003.00",78.00,,22.00
Landmark Harvesting Inc.,5600 Springbrook Road,Dewittville,NY,14728,5600 Springbrook Road Dewittville NY 14728 ,42.2389671,-79.3991765,"9,028.00",216.00,,2.00
Black Pheasant Farm LLC,408 East Boston Post Road,Mamaroneck,NY,10543,408 East Boston Post Road Mamaroneck NY 10543 ,40.9504838,-73.7304320,,100.00,,
Mandeville Farm,894 Ithaca Road,Spencer,NY,14883,894 Ithaca Road Spencer NY 14883 ,42.2646400,-76.5112040,,100.00,,
Tap Root Fields LLC,4272 Jordan Rd,Skaneateles,NY,13152,4272 Jordan Rd Skaneateles NY 13152 ,42.9783716,-76.4421637,"98,590.00",59.00,162.00,6.27
Leaning Birch Farm,2388 County Highway 107,Amsterdam,NY,12010,2388 County Highway 107 Amsterdam NY 12010 ,43.0262228,-74.1438376,"3,000.00",0.00,,0.00
Corwith Farms II LLC,480 Head of Pond Road,Watermill,NY,11976,480 Head of Pond Road Watermill NY 11976 ,40.9183183,-72.3646045,"2,250.00",0.00,,
Goatwell Farms LLC,3961 County Road 4,Canandaigua,NY,14424,3961 County Road 4 Canandaigua NY 14424 ,42.8985080,-77.2169640,"45,000.00",7.00,,
R & G Produce LLC,16 Van Sickle Road,Goshen,NY,10924,16 Van Sickle Road Goshen NY 10924 ,41.3177326,-74.4434948,,144.00,,4.00
Healing Nations Farm,7123 Vineyard Road,Conesus,NY,14435,7123 Vineyard Road Conesus NY 14435 ,42.7400964,-77.6222210,,2.00,,
Employment Development Services Inc.,36 Webster Road,Pine City,NY,14871,36 Webster Road Pine City NY 14871 ,42.0229235,-76.8824326,"1,500.00",10.00,,
Stellar Grow Inc.,51 Barley Lane,Patchogue,NY,11772,51 Barley Lane Patchogue NY 11772 ,40.7627099,-73.0178687,"10,123.00",45.00,,
S.J. McCullagh Inc.,245 Swan Street,Buffalo,NY,14204,245 Swan Street Buffalo NY 14204 ,42.8800422,-78.8668701,,17.00,,
Cherry Valley Growers Inc.,639 W Fingerboard Road,Staten Island,NY,10305,639 W Fingerboard Road Staten Island NY 10305 ,40.6004493,-74.0748760,"9,760.00",419.87,"1,500.00",2.00
Cannabis Solutions,2717 Genessee Street,Utica,NY,13501,2717 Genessee Street Utica NY 13501 ,43.0755721,-75.2825856,0.00,50.00,,
Ochs Orchard,40 Ochs Lane,Warwick,NY,10990,40 Ochs Lane Warwick NY 10990 ,41.2341040,-74.3650140,,9.00,,8.00
Gloria Maris LLC,225 Liberty Street Suite 1020A,New York,NY,10282,225 Liberty Street Suite 1020A New York NY 10282 ,40.7125334,-74.0154193,"1,000,000.00",100.00,,0.50
Gullybean Inc.,PO Box 269,Mountainville,NY,10953,PO Box 269 Mountainville NY 10953 ,41.3893030,-74.0938969,"6,000.00",10.00,,
Propagate Group PBC,1519 Dean Street,Brooklyn,NY,11213,1519 Dean Street Brooklyn NY 11213 ,40.6763808,-73.9376583,,50.00,,
Forty Foot Farms,80 Cohoes Avenue,Green Island,NY,12183,80 Cohoes Avenue Green Island NY 12183 ,42.7537309,-73.6951214,320.00,,,
Salt of the Earth,"1961 Main Street, #225",Watsonville,NY,95076,"1961 Main Street, #225 Watsonville NY 95076 ",36.9102310,-121.7568946,0.00,6.00,,
Mountain Growers LLC,206 Route 71,Hillsdale,NY,12529,206 Route 71 Hillsdale NY 12529 ,42.2484159,-73.4601217,800.00,2.00,,0.10
God's Flower LLC (DBA Hemp Farms of New York),320 Mount Airy Road,New Windsor,NY,12553,320 Mount Airy Road New Windsor NY 12553 ,41.4694754,-74.0969499,"1,000,000.00",650.00,"7,560.00",13.00
Chester Agricultural Center LLC,PO Box 269,Mountainville,NY,10918,PO Box 269 Mountainville NY 10918 ,41.4040683,-74.0780502,"1,800.00",4.00,,
Outlook Farm LLC,129 Edson Road,Windsor,NY,13865,129 Edson Road Windsor NY 13865 ,42.0284000,-75.6502590,,113.00,,
Possum Trot LLC,591 Sheffield Road,Ithaca,NY,14850,591 Sheffield Road Ithaca NY 14850 ,42.4688891,-76.5721446,,140.00,,
Alder Creek Beverages LLC,PO Box 212,Forestport,NY,13338,PO Box 212 Forestport NY 13338 ,43.4420132,-75.2071112,"1,700.00",0.00,,
Ancient Ways Hemp LLC,301 Brink Road,VanEtten,NY,14889,301 Brink Road VanEtten NY 14889 ,42.2734669,-76.5697510,975.00,0.00,,0.07
Harper Farms,12225 South Butler Road,Savannah,NY,13146,12225 South Butler Road Savannah NY 13146 ,43.1292537,-76.8048087,"20,000.00",,,
Stummer Farm,426 Neiger Hollow Road,Barton,NY,13734,426 Neiger Hollow Road Barton NY 13734 ,42.0968159,-76.4165380,,234.00,"2,500.00",
Rainbow Ridge Farm,5929 Route 414,Romulus,NY,14541,5929 Route 414 Romulus NY 14541 ,42.7358291,-76.8194316,,2.00,,
Lila Enterprise LLC,375 Glenwood Road,Pine Island,NY,10969,375 Glenwood Road Pine Island NY 10969 ,41.2797053,-74.4785284,"6,000.00",2.00,,
Simple Solutions By Hemp Inc.,225 Robinson Lane,Wappingers Falls,NY,12590,225 Robinson Lane Wappingers Falls NY 12590 ,41.6090629,-73.8250355,0.00,50.00,,
Michael Grillone,10 Maple Lane,Waterloo,NY,13165,10 Maple Lane Waterloo NY 13165 ,42.8965579,-76.8687179,,3.00,,
Claudine Field Apothecary,2633 State Route 23,Hillsdale,NY,12529,2633 State Route 23 Hillsdale NY 12529 ,42.1793232,-73.5256154,"2,000.00",5.00,,6.95
American Seed and Oil NY LLC,66 Harris Road,Katonah,NY,10536,66 Harris Road Katonah NY 10536 ,41.2472158,-73.6921795,,60.00,,2.00
Bravely Return to the Earth,5911 Spring Brook Path,Trumansburg,NY,14886,5911 Spring Brook Path Trumansburg NY 14886 ,42.5199930,-76.7582220,,10.00,,
The Hemptons LLC,173 Pratt Hill Road,Chatham,NY,12037,173 Pratt Hill Road Chatham NY 12037 ,42.3028313,-73.5752628,,7.00,,
Carbon Consulting LLC,304 The Parkway,Ithaca,NY,14850,304 The Parkway Ithaca NY 14850 ,42.4641231,-76.4871692,400.00,,,
Growing Renaissance LLC,455 Argyle Road,Brooklyn,NY,11218,455 Argyle Road Brooklyn NY 11218 ,40.6381202,-73.9654403,,388.00,"14,930.00",
Emplantx Farms,930 Chambers Road,Horseheads,NY,14845,930 Chambers Road Horseheads NY 14845 ,42.2361443,-76.9037560,,47.00,,0.00
Ternary Inc.,404 State Route 372,Cambridge,NY,12816,404 State Route 372 Cambridge NY 12816 ,43.0531200,-73.4163180,,173.00,,
Oksana Pidhoreckyj,312 Warren Street,Brooklyn,NY,11201,312 Warren Street Brooklyn NY 11201 ,,,,24.00,,2.00
Brian Pawelski Farm,272A Union Street,Montgomery,NY,12549,272A Union Street Montgomery NY 12549 ,40.6857043,-73.9924723,,45.00,,30.00
Columbia Care Industrial Hemp LLC,"1669 Lake Avenue, Building 59",Rochester,NY,14652,"1669 Lake Avenue, Building 59 Rochester NY 14652 ",41.5123304,-74.2527109,"7,680.00",,,
GWM Distribution LLC,"320 Robinson Avenue, Suite 212",Newburgh,NY,12550,"320 Robinson Avenue, Suite 212 Newburgh NY 12550 ",43.1968638,-77.6303804,0.00,4.00,,
New Amsterdam Hemp Company LLC,511 Mitchells Lane,Bridgehampton,NY,11932,511 Mitchells Lane Bridgehampton NY 11932 ,41.5134577,-74.0197768,"4,000.00",89.00,,1.00
PharmaCannis Labs LLC,"1010 Lake Street, 2nd Floor",Oak Park,IL,60301,"1010 Lake Street, 2nd Floor Oak Park IL 60301 ",40.9482510,-72.3205430,"47,606.00",,,
Central Processors LLC,"100 Intrepid Lane, Suite 1B",Syracuse,NY,13205,"100 Intrepid Lane, Suite 1B Syracuse NY 13205 ",41.8888038,-87.8010051,"12,000.00",30.00,,11.98
A Walk in the Pines LLC,11 Tubman Way,Rochester,NY,14608,11 Tubman Way Rochester NY 14608 ,43.0031025,-76.1294346,,134.00,,
John D Zimmerman,448 Route 247,Rushville,NY,14544,448 Route 247 Rushville NY 14544 ,43.1445330,-77.6176559,,3.00,,
Klaas & Mary-Howell Martens,1443 Ridge Road,Penn Yan,NY,14527,1443 Ridge Road Penn Yan NY 14527 ,42.7421409,-77.2274670,,21.00,,
The Model Organic Farm Foundation DBA McEnroe Organic Farm,194 Coleman Station Rd,Millerton,NY,12546,194 Coleman Station Rd Millerton NY 12546 ,42.6928560,-76.9966550,"2,880.00",5.00,,
Green Fox LLC,347 Bunn Hill Rd,Vestal,NY,13850,347 Bunn Hill Rd Vestal NY 13850 ,41.9008960,-73.5224160,,,,
H. Rothvoss & Sons Inc.,508 County Route 3,Ancramdale,NY,12503,508 County Route 3 Ancramdale NY 12503 ,42.0547340,-76.0054040,"7,752.00",33.00,341.56,0.04
Agro Technologies International LLC,1133 State Route 5 & 20,Geneva,NY,14456,1133 State Route 5 & 20 Geneva NY 14456 ,42.0421830,-73.5474780,,5.00,,1.00
Green Mead Farm,13 Silvernail Road,Valatie,NY,12184,13 Silvernail Road Valatie NY 12184 ,42.8592297,-77.0318921,"4,500.00",15.00,"4,000.00",0.00
Gro-Moore Farms,365 Goodburlet Road,Henrietta,NY,14467,365 Goodburlet Road Henrietta NY 14467 ,42.4136102,-73.6394787,"55,400.00",208.00,"25,312.00",30.76
Good Leaf LLC,255 Rochester Street,Salamanca,NY,14779,255 Rochester Street Salamanca NY 14779 ,43.0490210,-77.6036080,"21,000.00",3.00,,
Lone Oak Acres,10142 County Road #16,Swain,NY,14884,10142 County Road #16 Swain NY 14884 ,42.1594398,-78.7045714,,35.00,,
Full Spectrum Farm LLC,236 Fish Road,Ithaca,NY,14850,236 Fish Road Ithaca NY 14850 ,42.4420581,-77.9354689,"12,000.00",19.00,,
Marvin Morales,3041 Presbyterian Road,Mount Morris,NY,14510,3041 Presbyterian Road Mount Morris NY 14510 ,42.4406630,-76.6504080,"1,200.00",13.00,,2.00
Hemp 4 Heroes,11 Clapp Ave,Wappingers Falls,NY,12590,11 Clapp Ave Wappingers Falls NY 12590 ,42.6278780,-77.8511539,,8.00,,2.50
Full Moon Hemp,801 Route 311,Patterson,NY,12563,801 Route 311 Patterson NY 12563 ,41.5958433,-73.9210332,"2,000.00",2.00,,1.00
Jenny's Baked at Home Company,953 Greene Ave,Brooklyn,NY,11221,953 Greene Ave Brooklyn NY 11221 ,41.5096607,-73.6167073,,20.00,,
The Hemp Farm NY LLC,4 Elm Street,Huntington,NY,11743,4 Elm Street Huntington NY 11743 ,40.6910948,-73.9292073,"93,000.00",134.00,83.00,4.50
Davandjer Farms,35 Davandjer Ln,Pine Island,NY,10973,35 Davandjer Ln Pine Island NY 10973 ,40.8701152,-73.4257282,,75.00,,
WNYWP LLC,2697 Lakeville Rd,Avon,NY,14414,2697 Lakeville Rd Avon NY 14414 ,41.2946184,-74.4901063,"86,000.00",,,
Semiotic,"151 North Main Street, Ste #404",New York City,NY,10956,"151 North Main Street, Ste #404 New York City NY 10956 ",42.8700691,-77.7122101,,15.00,,
Seedway LLC,PO Box 250 1734 Railroad Place,Hall,NY,14463,PO Box 250 1734 Railroad Place Hall NY 14463 ,40.7127753,-74.0059728,"35,000.00",,,
30 FishAndGame LLC,28 Fish and Game Rd,Hudson,NY,12534,28 Fish and Game Rd Hudson NY 12534 ,42.7979635,-77.0684087,,71.00,,3.00
Full Circle Farms,151 East Road,Fort Edward,NY,12828,151 East Road Fort Edward NY 12828 ,42.2550190,-73.7453450,,10.00,,
Easy Livin Farms,7823 Middle Rd,Rome,NY,13440,7823 Middle Rd Rome NY 13440 ,43.2809860,-73.5573940,,15.00,,
Pondview Produce,2591 State Rt 79,Trumansburg,NY,14886,2591 State Rt 79 Trumansburg NY 14886 ,43.2218420,-75.3698420,,10.00,,
Averone LLC,210 East Fayette Street,Syracuse,NY,13202,210 East Fayette Street Syracuse NY 13202 ,42.4489558,-76.6796689,,41.00,,
Hurd Farm LLC,76 Hurds Road,Clintondale,NY,12515,76 Hurds Road Clintondale NY 12515 ,43.0484553,-76.1502662,"2,700.00",18.00,,
Clear Natural LLC,11 Park Place,New York,NY,10013,11 Park Place New York NY 10013 ,41.7009149,-74.0570007,,420.00,,
S.W. Wolk Corp.,7 Liberty Street,Fairhaven,VT,5743,7 Liberty Street Fairhaven VT 5743 ,40.7473052,-73.9807265,,10.00,,
Hempire State Growers Inc./Hepworth Farms,506 South Road,Milton,NY,12547,506 South Road Milton NY 12547 ,43.5920359,-73.2642348,,715.43,,13.85
Toadflax Nursery LLC,1604 Route 9,Moreau,NY,12828,1604 Route 9 Moreau NY 12828 ,41.6429995,-73.9614211,"22,252.00",88.00,420.00,0.32
Fat Nell LLC,1601 County Route 7A,Copake,NY,12516,1601 County Route 7A Copake NY 12516 ,43.2689198,-73.6508041,"8,500.00",15.00,0.00,0.05
Thomas Strodel,527 Clifton Park Center Rd,Clifton Park,NY,12065,527 Clifton Park Center Rd Clifton Park NY 12065 ,42.1039822,-73.5569850,,13.00,,
SEW Wilcox Farm,2782 Lawson Road,Oriskany Falls,NY,13425,2782 Lawson Road Oriskany Falls NY 13425 ,42.8571302,-73.7960005,,4.00,,
Boondock Farm,2672 Waddell Road,Addison,NY,14801,2672 Waddell Road Addison NY 14801 ,42.9972558,-75.4781815,"1,440.00",10.00,,
Twin Arch Farm,200 Twin Arch Road,Rock Tavern,NY,12575,200 Twin Arch Road Rock Tavern NY 12575 ,42.1374566,-77.2903318,"2,000.00",10.00,,5.00
GenCanna Global USA Inc.,220 Water Street Apt 423,Brooklyn,NY,11201,220 Water Street Apt 423 Brooklyn NY 11201 ,41.4515400,-74.1950600,"3,200.00",10.00,,
Andrew Pirozzolo,50A Far Rockaway Rd,Pine City,NY,14871,50A Far Rockaway Rd Pine City NY 14871 ,40.7026808,-73.9852986,"4,000.00",13.00,,2.89
Blackberry Falls Farm,409 Mceachron Hill Road,Argyle,NY,12809,409 Mceachron Hill Road Argyle NY 12809 ,42.0880610,-76.8985270,"2,650.00",10.00,38.50,1.75
Connor Schaeffer,138 Maple Hill Road,Kingston,NY,12401,138 Maple Hill Road Kingston NY 12401 ,43.2417050,-73.4442730,300.00,8.00,,
Gardenworks Farm,1055 County Route 30,Salem,NY,12865,1055 County Route 30 Salem NY 12865 ,41.8644833,-74.0611312,0.00,2.00,,1.00
R. Dobbin Hill Homestead LLC,20 Dobbin Hill Road,Cambridge,NY,12816,20 Dobbin Hill Road Cambridge NY 12816 ,43.2133259,-73.3745307,,10.00,,
Breathing Web Farms,1789 East Lake Road,Skaneateles,NY,13152,1789 East Lake Road Skaneateles NY 13152 ,43.0782900,-73.3550999,"2,160.00",16.00,,0.00
Misty Bleu Farm LLC,3602 County Route 30,Salem,NY,12865,3602 County Route 30 Salem NY 12865 ,42.8555289,-76.3310974,,10.00,,3.30
Tuscarora Farms,4220 Sanderson Road,Erieville,NY,13061,4220 Sanderson Road Erieville NY 13061 ,43.2581671,-73.3759583,"3,050.00",5.00,,
JC Andresen Farming LLC,281 North Sanford Road,Sanford,NY,13754,281 North Sanford Road Sanford NY 13754 ,42.8382991,-75.7154460,,30.00,,
Camphill Village USA,84 Camphill Road,Copake,NY,12516,84 Camphill Road Copake NY 12516 ,42.1171300,-75.4691480,"12,780.00",20.01,"2,900.00",5.10
Honest Pharm Co. Inc.,19220 Pinon Park Rd,Peyton,CO,80831,19220 Pinon Park Rd Peyton CO 80831 ,42.1154790,-73.6074436,"463,643.00",,"25,350.00",
Foxhound Forge,32 Oatman Lane,Granville,NY,12832,32 Oatman Lane Granville NY 12832 ,39.0893277,-104.4699417,,144.00,,0.02
Gromor Nursery,44 C Middle Island Ave,Medford,NY,11763,44 C Middle Island Ave Medford NY 11763 ,43.3704589,-73.3475720,"33,256.00",,,
Green Grow Farms Inc.,"606 Johnson Ave, Ste 3",Bohemia,NY,11716,"606 Johnson Ave, Ste 3 Bohemia NY 11716 ",40.8265790,-73.0065748,"7,200.00",6.00,,
Rollin Hill Hemp,188 Warren Road,Fort Anne,NY,12827,188 Warren Road Fort Anne NY 12827 ,40.7784203,-73.0966056,,20.00,,
Todd Town,1821 Warners Road,Warners,NY,13164,1821 Warners Road Warners NY 13164 ,43.3890940,-73.4063490,,2.00,,0.05
C Madura Farm B Corp.,54 Rudinski Ln,Pine Island,NY,10969,54 Rudinski Ln Pine Island NY 10969 ,43.0972207,-76.3796579,"2,400.00",250.00,,54.00
Vitamin D,64 Loafers Bluff Dr,Ogdensburg,NY,13669,64 Loafers Bluff Dr Ogdensburg NY 13669 ,41.2914995,-74.4971572,,2.00,,0.80
L&C Hempfarms LLC,14 Tobey Road,Hapursville,NY,13787,14 Tobey Road Hapursville NY 13787 ,44.7548360,-75.3987350,800.00,70.00,,0.00
Kickfly's,2820 Balltown Road,Niskayuna,NY,12309,2820 Balltown Road Niskayuna NY 12309 ,42.1984800,-75.6917600,,0.50,,
Hazlitt 1852 Vinyards,5188 Basset Road,Hector,NY,14842,5188 Basset Road Hector NY 14842 ,42.8454242,-73.8897308,,45.00,,
Stop 28 Farm and Nursery Inc.,750 Alderman Road,Palmyra,NY,14522,750 Alderman Road Palmyra NY 14522 ,42.4848068,-76.8484697,"2,200.00",4.00,36.48,0.06
Kurtz Farm,1952 Cty Rt 5,Addison,NY,14801,1952 Cty Rt 5 Addison NY 14801 ,43.0374240,-77.2757970,,7.00,,
WestWind Ag LLC,141 Verbeck Avenue,Schaghticoke,NY,12154,141 Verbeck Avenue Schaghticoke NY 12154 ,42.1028514,-77.2335879,,10.00,,
Can I B U Services LLC,8895 N. Military Trail Suite 206C,Palm Beach Gardens,FL,33410,8895 N. Military Trail Suite 206C Palm Beach Gardens FL 33410 ,42.9341586,-73.6197059,"21,000.00",20.00,,
Onesta Farms,380 Lape Road,Nassau,NY,12123,380 Lape Road Nassau NY 12123 ,26.8080768,-80.1073063,,8.00,,
Dylan Barber Farms,2366 Carter Slocum Road,Marathon,NY,13803,2366 Carter Slocum Road Marathon NY 13803 ,42.5180400,-73.6521740,,5.00,,
Full Spectrum Ag LLC/Maple Avenue Tree Nursery,PO Box 1398,Ballston Lake,NY,12019,PO Box 1398 Ballston Lake NY 12019 ,42.5222976,-76.0132342,,94.00,,0.24
MTV Realty Partners LLC,213 Jones peck Road,Smyrna,NY,13464,213 Jones peck Road Smyrna NY 13464 ,42.9117377,-73.8680872,200.00,40.00,,
Sky Farm Inc.,1395 Boston Corners Road,Millerton,NY,12546,1395 Boston Corners Road Millerton NY 12546 ,42.6212454,-75.5502779,"14,000.00",8.00,"3,200.00",0.10
Blunts,2705 State Route 315,Deansboro,NY,13328,2705 State Route 315 Deansboro NY 13328 ,42.0206192,-73.5106130,"1,260.00",2.00,,
Kimberly's Greenhouses Inc.,3438 State Route 26,Glen Aubrey,NY,13777,3438 State Route 26 Glen Aubrey NY 13777 ,42.9914343,-75.4274169,"4,800.00",,"1,430.00",
Michelle Pultz,996 St Rte 79,Windsor,NY,13865,996 St Rte 79 Windsor NY 13865 ,42.2383076,-76.0130330,"7,000.00",4.00,,
Reilly's Farm,149 Clarks Chapel Road,Nassau,NY,12123,149 Clarks Chapel Road Nassau NY 12123 ,42.0564530,-75.6311960,"5,600.00",15.00,,
Upstate Valley Farm,436 Denal Way,Vestal,NY,13850,436 Denal Way Vestal NY 13850 ,42.5797613,-73.5778852,,12.00,,
Horstman Farm LLC,7 Swaggertown Road,Glenville,NY,12302,7 Swaggertown Road Glenville NY 12302 ,42.0876514,-75.9928332,,3.00,,
Northwoods Holding Group LLC,PO Box 8,Watervliet,NY,12189,PO Box 8 Watervliet NY 12189 ,42.8442550,-73.9489094,"7,300.00",3.00,,
Halseys Green Thumb of Water Mill Inc.,132 Halsey Lane,Watermill,NY,11976,132 Halsey Lane Watermill NY 11976 ,42.7164239,-73.7085479,,21.00,,
Porpiglia Farms Inc.,507 Lattintown Road,Marlboro,NY,12542,507 Lattintown Road Marlboro NY 12542 ,40.9094020,-72.3503066,,4.00,,
Denise Carr,114 Fay St,Fulton,NY,13069,114 Fay St Fulton NY 13069 ,41.6217130,-73.9911983,,2.00,,
Jesse Freund,9185 Hayward Hill Road,Hemlock,NY,14466,9185 Hayward Hill Road Hemlock NY 14466 ,43.3125947,-76.4058000,"10,500.00",33.00,,53.22
Roy Willis,964 Nanticoke Rd,Maine,NY,13802,964 Nanticoke Rd Maine NY 13802 ,42.7465330,-77.5485940,,14.00,,
Webb's LLC,22 Rock St,Newark Valley,NY,13811,22 Rock St Newark Valley NY 13811 ,42.2661720,-76.0474909,,70.00,,
Brushy View Farm,6085 County Route 100,Addison,NY,14801,6085 County Route 100 Addison NY 14801 ,42.2227937,-76.1819739,,11.00,,
ERP Farms LLC,1628 Route 211 E,Middletown,NY,10941,1628 Route 211 E Middletown NY 10941 ,42.0138630,-77.3520030,"6,300.00",41.00,,0.00
Dewdrop Farm LLC,304 Hayts Road,Ithaca,NY,14850,304 Hayts Road Ithaca NY 14850 ,41.4773349,-74.3091250,"6,000.00",106.00,,8.75
Gordon Hasbrouck Estate/Farm,641 Mt. Orange Rd,Middletown,NY,10940,641 Mt. Orange Rd Middletown NY 10940 ,42.4702770,-76.5777750,,36.00,,
New York Food Science Inc.,"169 Milbank Ave, Unit West",Greenwich,CT,6830,"169 Milbank Ave, Unit West Greenwich CT 6830 ",41.4117950,-74.5177870,,5.00,,
On Point AG LLC,298 Hardy Road,Maine,NY,13790,298 Hardy Road Maine NY 13790 ,41.0290820,-73.6215272,,4.00,,
Rooted and Wild Inc.,236 Dorland Road,Old Chatham,NY,12136,236 Dorland Road Old Chatham NY 12136 ,42.2251801,-76.0052396,,4.00,,
Oak Queens LLC,810 Queens Highway,Accord,NY,12404,810 Queens Highway Accord NY 12404 ,42.4678650,-73.5533330,300.00,10.00,,0.80
Engelke Farm and Gardens,463 Garfield Road,Troy,NY,12180,463 Garfield Road Troy NY 12180 ,41.8423514,-74.2792947,"3,000.00",3.00,,
Zuke Acres,371 Hunt Hill Road,Port Crane,NY,13833,371 Hunt Hill Road Port Crane NY 13833 ,42.7222595,-73.5986022,0.00,35.00,,
Colorado's Brand Distributing LLC,440 Sundance Trail,Webster,NY,14580,440 Sundance Trail Webster NY 14580 ,42.1835219,-75.7678999,"50,976.00",47.00,"3,500.00",
Far-A-Way Farm,315 State Route 26,Georgetown,NY,13072,315 State Route 26 Georgetown NY 13072 ,43.2342259,-77.5146761,,10.00,,
Fox Hollow Overlook Farm,1049 Old State Road,Binghamton,NY,13904,1049 Old State Road Binghamton NY 13904 ,42.7356040,-75.7390240,"2,500.00",2.00,,
Main Root LLC,PO Box 27,Copake Falls,NY,12517,PO Box 27 Copake Falls NY 12517 ,42.1450636,-75.8075212,,8.00,,
Rudolph E Stolzfus,7567 Hardscrabble Road,Addison,NY,14801,7567 Hardscrabble Road Addison NY 14801 ,42.1195347,-73.5251198,,5.00,,
Oneill Farms,2706 Chase Road,Weedsport,NY,13166,2706 Chase Road Weedsport NY 13166 ,42.1008797,-77.2620896,,48.00,,
Stagger Lee's Farms,1428 County Route 1,Oswego,NY,13126,1428 County Route 1 Oswego NY 13126 ,43.1460630,-76.5585289,"3,000.00",130.00,,
Homestead Farms & Ranch LLC,753 Tanner Road,Clifton Park,NY,12065,753 Tanner Road Clifton Park NY 12065 ,43.4880917,-76.4050236,,2.00,,63.02
JT Doran,8 Whitetail Circle,Oswego,NY,13126,8 Whitetail Circle Oswego NY 13126 ,42.8896594,-73.8291098,"1,500.00",8.00,,0.01
Herondale Farm Inc.,90 Wiltsie Bridge Road,Ancramdale,NY,12503,90 Wiltsie Bridge Road Ancramdale NY 12503 ,43.4352620,-76.5016790,,57.00,"1,500.00",2.00
Singer Farm Naturals LLC,6730 Lake Road,Appleton,NY,14008,6730 Lake Road Appleton NY 14008 ,42.0664187,-73.5693279,"7,500.00",14.01,20.38,0.67
Zizzmo LLC,1466 Cumberland Head Road,Plattsburgh,NY,12901,1466 Cumberland Head Road Plattsburgh NY 12901 ,43.3440760,-78.6578220,,2.00,"6,000.00",0.27
Grasse River Hemp,6900 CR 27,Canton,NY,13676,6900 CR 27 Canton NY 13676 ,44.7317260,-73.4129729,"1,100.00",2.00,,2.14
AgZeit LLC,303 West Main St,Endicott,NY,13760,303 West Main St Endicott NY 13760 ,44.6445884,-75.2045819,"7,000.00",,,
C&M Farms and Greenhouses LLC,321 Running Creek Rd,Valatie,NY,12184,321 Running Creek Rd Valatie NY 12184 ,42.0949242,-76.0690091,,91.00,,42.08
Happenchance Farm Inc.,396 County Route 68,Eagle Bridge,NY,12057,396 County Route 68 Eagle Bridge NY 12057 ,42.4462995,-73.7201650,,4.00,,
Mohawk Valley Partners LLC,3415 Loggerhead Way,Wesley Chapel,FL,33544,3415 Loggerhead Way Wesley Chapel FL 33544 ,42.9539491,-73.3354993,,10.00,,
Roemer Farms,250 Gedney Hill Road,Coymans Hollow,NY,12046,250 Gedney Hill Road Coymans Hollow NY 12046 ,28.2064115,-82.3693234,"7,000.00",,,
Rick DePalma,20 Fairview Ave,Ridgefield,CT,6877,20 Fairview Ave Ridgefield CT 6877 ,42.4571590,-73.8951460,"21,780.00",11.00,"6,600.00",5.00
Zook Farm,12852 State Route 38,Berkshire,NY,13736,12852 State Route 38 Berkshire NY 13736 ,41.2812951,-73.5078517,,17.00,,
Mary V Kepplers Riding Enterprises LTD dba Forrestel Farm,11380 Main Street,Medina,NY,14103,11380 Main Street Medina NY 14103 ,42.3276501,-76.1802663,"1,719.00",23.00,,0.00
A&J Ag Services,6190 Reading Road,Rock Stream,NY,14878,6190 Reading Road Rock Stream NY 14878 ,43.1892028,-78.3886221,,26.00,,
Recreational Roots LLC,60 Elston Hollow Road,Elmira,NY,14901,60 Elston Hollow Road Elmira NY 14901 ,42.4642876,-76.9369029,,1.00,,0.00
Charlie D's LLC,16475 State Highway 97,Hancock,NY,13783,16475 State Highway 97 Hancock NY 13783 ,42.0878299,-76.7173339,,16.00,,
Everest Polo Stables Inc.,"689 Fifth Ave, Fl 4",New York,NY,10022,"689 Fifth Ave, Fl 4 New York NY 10022 ",41.9401380,-75.2725690,900.00,7.00,,
Adirondack Hemp,674 Hogback Road,Crown Point,NY,12928,674 Hogback Road Crown Point NY 12928 ,40.7610107,-73.9748828,,7.00,,
Chenango Hemp,585 Brotzman Road,Binghamton,NY,13746,585 Brotzman Road Binghamton NY 13746 ,43.9349580,-73.5302770,,10.00,,
Washburn Farm,40 Washburn Farm Road,Saugerties,NY,12477,40 Washburn Farm Road Saugerties NY 12477 ,42.2104063,-75.8938266,,1.00,,
Birdsong Hemp Company LLC,38718 NY Hywy 10,Delhi,NY,13753,38718 NY Hywy 10 Delhi NY 13753 ,42.0246536,-73.9611565,,80.00,,
7008 Omphalius Road LLC,7346 Boston State Road,Hamburg,NY,14075,7346 Boston State Road Hamburg NY 14075 ,42.2757821,-74.9189743,,166.00,,
Ralph Poole DBA Bellwood Farm,4119 County Rd,Geneva,NY,14456,4119 County Rd Geneva NY 14456 ,42.6834253,-78.7675005,,6.00,,0.30
C&L Farms,2356 Baker Road,Andover,NY,14806,2356 Baker Road Andover NY 14806 ,42.8679836,-76.9855570,,136.00,,
Canopy Growth USA LLC,150 Waterpoint Dr,Springfield Center,NY,13468,150 Waterpoint Dr Springfield Center NY 13468 ,42.2105260,-77.8517860,,595.00,,
Lincoln Hill Farm,3792 State Route 247,Canandaigua,NY,14424,3792 State Route 247 Canandaigua NY 14424 ,42.8323630,-74.8900470,,2.00,,
Empire Agricultural Services LLC,78 Legion Circle,Rochester,NY,14616,78 Legion Circle Rochester NY 14616 ,42.8440523,-77.3143622,"2,000.00",28.50,,2.50
Joe Sidoti,10 Hillcrest Drive,Westtown,NY,10998,10 Hillcrest Drive Westtown NY 10998 ,43.2336989,-77.6567680,,20.00,,
Humble Hill Farm,390 Tallow Hill Rd,Spencer,NY,14883,390 Tallow Hill Rd Spencer NY 14883 ,41.3208053,-74.5634231,"2,236.00",2.00,,0.00
Robert J Gonyo,903 Scottsville-Chili-Rd,Scottsville,NY,14546,903 Scottsville-Chili-Rd Scottsville NY 14546 ,42.2468720,-76.4275250,,2.00,,
Arbuckle Hollow Farm,1399 Arbuckle Hollow Rd,Delancey,NY,13752,1399 Arbuckle Hollow Rd Delancey NY 13752 ,43.0505290,-77.7885790,,1.00,,
Nickel City Wholesale Garden Supply Inc.,1102 Ganson Ave,Corfu,NY,14036,1102 Ganson Ave Corfu NY 14036 ,42.2351410,-74.9076539,"3,200.00",22.30,12.00,
Snail Valley,9289 Gray Rd,Bloomfield,NY,14469,9289 Gray Rd Bloomfield NY 14469 ,42.9546335,-78.4072176,"1,488.00",42.00,,
EZ Acres Farm LLC,8119 Lower East Hill Road,Colden,NY,14033,8119 Lower East Hill Road Colden NY 14033 ,42.8586020,-77.5507860,"2,000.00",3.00,,0.01
French Woods Farms LLC,1826 French Woods Rd,Hancock,NY,13783,1826 French Woods Rd Hancock NY 13783 ,42.6620580,-78.6992269,,49.00,,
ABCanna LLC,54 Hunter Road,Parksville,NY,12768,54 Hunter Road Parksville NY 12768 ,41.9205260,-75.2382920,,3.00,,
Hempire Inc. - DBA Empire Farm 1830,21 Pond Hill Rd,Craryville,NY,12521,21 Pond Hill Rd Craryville NY 12521 ,41.9148446,-74.6697230,"18,000.00",500.00,"24,000.00",10.00
Rose Lamport Hemp,13691 County Highway 18,Hobart,NY,13788,13691 County Highway 18 Hobart NY 13788 ,42.1604770,-73.6008650,,14.00,,7.00
Of a Kinde,1587 Daisy Hollow Rd,Cortland,NY,13045,1587 Daisy Hollow Rd Cortland NY 13045 ,42.3714704,-74.6704311,600.00,3.00,"44,000.00",0.00
Hiddenview Farm,165 Conrad Ln,Earlton,NY,12058,165 Conrad Ln Earlton NY 12058 ,42.4844352,-76.2264115,,1.00,,
Cantiva Holdings Inc.,37 Blue Jay Way,East Hamptons,NY,11937,37 Blue Jay Way East Hamptons NY 11937 ,42.3248130,-73.9340830,,10.00,,
Northeast Hemp Company,211 Brink Rd,Candor,NY,13743,211 Brink Rd Candor NY 13743 ,40.9612383,-72.2190524,300.00,9.00,,
Partyka & Sons Farms LLC,1420 County Line Rd,Kendall,NY,14476,1420 County Line Rd Kendall NY 14476 ,42.2132090,-76.3029350,,0.00,,
Grayak LLC,3071 Irish Hill Rd,Cazenovia,NY,13035,3071 Irish Hill Rd Cazenovia NY 13035 ,43.3164401,-77.9945856,300.00,2.00,,
Shepherd Farms LLC,135 Walling Rd,Warwick,NY,10990,135 Walling Rd Warwick NY 10990 ,42.8726750,-75.8107770,,30.00,,
Grateful Valley Farm LLC,263 McCarthy Road,Lindley,NY,14858,263 McCarthy Road Lindley NY 14858 ,41.2613480,-74.4397360,"4,600.00",54.00,,14.00
A Dream Hemp Farm LLC,149 Fox Hollow Rd,Binghamton,NY,13904,149 Fox Hollow Rd Binghamton NY 13904 ,42.0112780,-77.0359930,"2,496.00",40.00,,
Jacob Fox,Box 40,Locke,NY,14456,Box 40 Locke NY 14456 ,42.1297840,-75.8101230,,5.00,,22.00
Coal Tree Farm LLC,PO Box 247,Westtown,NY,10998,PO Box 247 Westtown NY 10998 ,42.8361156,-76.9873477,,34.00,,
Mark Squared Consulting Management Group LLC,"350 East Las Olas, STE 1750",Fort Lauderdale,FL,33301,"350 East Las Olas, STE 1750 Fort Lauderdale FL 33301 ",41.3367610,-74.5398821,"174,500.00",74.00,,
Cas-Mac Farms,3323 State Route 54a,Keuka Park,NY,14478,3323 State Route 54a Keuka Park NY 14478 ,26.1187155,-80.1402422,,35.00,,
RK & PK Enterprise,8053 Sisson Highway,Eden,NY,14057,8053 Sisson Highway Eden NY 14057 ,42.5980362,-77.1260014,"5,336.00",6.00,1.00,0.00
Jamestown Hydroponics/Truth CBD LLC,211 N Main St,Jamestown,NY,14701,211 N Main St Jamestown NY 14701 ,42.6670350,-78.8517920,"1,000.00",3.00,,0.00
Close Farms,105 Lakeview Road,Mayfield,NY,12117,105 Lakeview Road Mayfield NY 12117 ,42.0953595,-79.2424099,"10,864.00",50.00,,4.05
Cortina,1 Cortina Valley Road,Elka Park,NY,12427,1 Cortina Valley Road Elka Park NY 12427 ,43.1098672,-74.2345087,,40.00,,
Barnes Greenhouses,3184 East Main Road,Dunkirk,NY,14048,3184 East Main Road Dunkirk NY 14048 ,42.1898168,-74.1202526,"85,000.00",,,
Pleasant Valley Farmacy (formerly Pleasant Lea Farm),37 Pleasant Valley Rd,Argyle,NY,12809,37 Pleasant Valley Rd Argyle NY 12809 ,42.4732677,-79.2683142,"2,500.00",12.00,"2,145.00",5.11
Stem Holdings Agri Inc.,745 Fifth Ave,New York,NY,10151,745 Fifth Ave New York NY 10151 ,43.2105299,-73.5092276,,10.00,,
The Releaf Market LLC,1778 Foote Ave Ext,Jamestown,NY,14701,1778 Foote Ave Ext Jamestown NY 14701 ,40.7631712,-73.9733933,"2,554.00",5.00,265.00,0.04
Lennys Bee Productions,395 Wittenberg Road,Bearsville,NY,12409,395 Wittenberg Road Bearsville NY 12409 ,42.0751202,-79.2253666,,1.00,,
David Barbeisch,2487 Route 7,Bainbridge,NY,13733,2487 Route 7 Bainbridge NY 13733 ,42.0258469,-74.1925037,,10.00,,
FW Battenfeld and Son,856 Route 199,Redhook,NY,12571,856 Route 199 Redhook NY 12571 ,42.3031379,-75.4630342,,13.00,,
Hemp2Harvest LLC,8860 Highway 79,Bennett,CO,80102,8860 Highway 79 Bennett CO 80102 ,41.9689917,-73.8111887,,220.00,,
Hempstead House Estate Farm Inc.,3 Island Court,Port Washington,NY,11050,3 Island Court Port Washington NY 11050 ,39.8599885,-104.4130663,"840,935.00",,,
Big M Direct LLC,PO Box 311,Pine Island,NY,10969,PO Box 311 Pine Island NY 10969 ,40.8481178,-73.7042721,,8.00,,
Kevin Mills,140 Upper Whitfield Rd,Accord,NY,12404,140 Upper Whitfield Rd Accord NY 12404 ,41.2978722,-74.4593240,,13.00,,
Snow Valley Dairy LLC,2739 State Route 11B,North Bangor,NY,12966,2739 State Route 11B North Bangor NY 12966 ,41.8185504,-74.2466131,,2.00,,2.00
Robert Walker,292 Sharptown Rd,Stuyvesant,NY,12173,292 Sharptown Rd Stuyvesant NY 12173 ,44.8019764,-74.3952240,"3,000.00",4.00,,
Dan's Dairy LLC,3231 State Route 37,Fort Covington,NY,12937,3231 State Route 37 Fort Covington NY 12937 ,42.3778472,-73.7696785,,2.00,,
Whiskey Hollow Hemp,PO Box 117,Hobart,NY,13788,PO Box 117 Hobart NY 13788 ,44.9776462,-74.4391916,,3.00,,
Joseph H Sega,362 Route 392,Dryden,NY,13053,362 Route 392 Dryden NY 13053 ,42.3714704,-74.6704311,"10,000.00",40.00,0.00,11.70
Garden State Growers,99 Locust Grove Road,Pittstown,NJ,8867,99 Locust Grove Road Pittstown NJ 8867 ,42.4872830,-76.2501841,"740,520.00",,,
Dwight L Martin,3521 Ensenore Road,Moravia,NY,13118,3521 Ensenore Road Moravia NY 13118 ,40.5574979,-74.9479116,,73.00,,
Ramborne LLC,2308 Warners Road,Van Buren,NY,13027,2308 Warners Road Van Buren NY 13027 ,42.7857910,-76.5014520,,2.00,,
Crown City Green,890 McLean Road,Cortland,NY,13045,890 McLean Road Cortland NY 13045 ,43.0928618,-76.3478249,"6,800.00",5.00,"10,584.00",
Lake Breeze Farms LLC,10515 Jordan Road,Cato,NY,13033,10515 Jordan Road Cato NY 13033 ,42.5813349,-76.2178104,"30,042.00","1,721.00",,
Seven Sages Farms LLC,"100 Allens Creek Road, Suite 100",Rochester,NY,14618,"100 Allens Creek Road, Suite 100 Rochester NY 14618 ",43.1598599,-76.5214183,,5.00,,
Capi Region Roots Inc.,274 Greenfield Avenue,Ballston Spa,NY,12020,274 Greenfield Avenue Ballston Spa NY 12020 ,43.1170450,-77.5510990,,1.00,,
Reuben B. Hertzler Farm,6270 County Road 129,Ovid,NY,14521,6270 County Road 129 Ovid NY 14521 ,43.0342816,-73.8589151,,4.00,,
Reindance Dressage Inc.,584 Johnson Hill Road,Hoosick Falls,NY,12090,584 Johnson Hill Road Hoosick Falls NY 12090 ,42.7187440,-76.7940150,"2,394.00",6.00,,0.00
Joyful Farms LLC,2549 State Highway 26,Otselic Center,NY,13072,2549 State Highway 26 Otselic Center NY 13072 ,42.9176130,-73.3382910,,6.00,,
Red Eastern Farm LLC,4477 State Route 30,Middleburgh,NY,12122,4477 State Route 30 Middleburgh NY 12122 ,42.7011855,-75.7463477,"13,800.00",16.00,,
J & A Hill LLC,7322 Antioch Road,Middle Grove,NY,12850,7322 Antioch Road Middle Grove NY 12850 ,42.6104110,-74.3424820,"3,560.00",4.00,200.00,0.00
CannaBuDs,234 Hapeman Hill Road,Red Hook,NY,12572,234 Hapeman Hill Road Red Hook NY 12572 ,43.1106398,-74.0047416,"10,060.00",2.00,"6,048.00",0.68
Mountain View Dairy,1221 County Route 10,Lewis,NY,12950,1221 County Route 10 Lewis NY 12950 ,41.9999460,-73.8183390,,"1,028.00",,
Newphorian LLC,5911 Loomis Road,Farmington,NY,14425,5911 Loomis Road Farmington NY 14425 ,44.2698530,-73.5416850,"23,000.00",5.00,,
Shima Hill Farm,1196B County Route 25,Canton,NY,13617,1196B County Route 25 Canton NY 13617 ,42.9929910,-77.3473551,,0.00,,0.00
Oil Naturally,"32 Main Street, Unit E",Scottsville,NY,14546,"32 Main Street, Unit E Scottsville NY 14546 ",44.7479958,-74.2210304,,5.00,,
Law Farm,220 County Road 20,Sherburne,NY,13460,220 County Road 20 Sherburne NY 13460 ,43.0198142,-77.7505056,,38.00,,
Molyneaux's Plantation,217 Sherder Road,Endicott,NY,13760,217 Sherder Road Endicott NY 13760 ,42.6485762,-75.5430910,,12.00,,0.00
Gilmer,127 Payne Road,Ravena,NY,12143,127 Payne Road Ravena NY 12143 ,42.1778688,-76.0936292,,1.00,,
Rabbit Creek Farm,593 West Groton Road,Groton,NY,13073,593 West Groton Road Groton NY 13073 ,42.5075254,-73.8778217,"3,320.00",0.00,"13,600.00",0.00
B30F Enterprises LLC,676 Badwin Road,Fulton,NY,13069,676 Badwin Road Fulton NY 13069 ,42.6032370,-76.4293053,400.00,2.00,0.00,0.01
5F Farm,64 Mountain Rest Road,New Paltz,NY,12561,64 Mountain Rest Road New Paltz NY 12561 ,43.3851439,-76.3461610,,41.00,,
Terrace Corporation of NY,54 Nelson Avenue Extension,Saratoga Springs,NY,12866,54 Nelson Avenue Extension Saratoga Springs NY 12866 ,41.7536930,-74.1083589,900.00,1.00,346.00,0.00
Adirondack Hemp Farm's LLC,39 Dick Hyatt Lane,Whitehall,NY,12887,39 Dick Hyatt Lane Whitehall NY 12887 ,43.0510930,-73.7736740,,70.00,,56.44
Good Living Acres LLC,3756 Harris Hill Road,Falconer,NY,14733,3756 Harris Hill Road Falconer NY 14733 ,43.5069970,-73.3869940,"1,400.00",4.00,50.00,0.00
Green Earth Living LLC,399 Gregory Rd,Monticello,NY,12701,399 Gregory Rd Monticello NY 12701 ,42.1633140,-79.1877350,"654,076.00",19.00,,
Raven's View Genetics LLC,3664 County Highway 18,Delhi,NY,13753,3664 County Highway 18 Delhi NY 13753 ,41.6066670,-74.7746660,"4,752.00",26.00,100.00,
Cortlandt Botanicals LLC,38 Hill and Dale Road,Cortlandt Manor,NY,10567,38 Hill and Dale Road Cortlandt Manor NY 10567 ,42.6486982,-75.3225106,"20,000.00",2.00,,
Daniel VanVleet,1665 Lodi Point Road,Lodi,NY,14860,1665 Lodi Point Road Lodi NY 14860 ,41.2750819,-73.8816460,,11.00,,
Joseph R. Adornetto,420 Collins St,Hillsdale,NY,12529,420 Collins St Hillsdale NY 12529 ,42.6212329,-76.8550930,"1,500.00",3.00,,0.46
TallChief Hemp LLC,11359 South Western Boulevard,Irving,NY,14081,11359 South Western Boulevard Irving NY 14081 ,42.2096425,-73.4997057,,500.00,,
Green Harvest Farms LLC,64A Upper Wisner Rd,Warwick,NY,10990,64A Upper Wisner Rd Warwick NY 10990 ,42.5712823,-79.0931014,"1,000.00",2.00,,0.00
Alan Sacks,667 Cornell Ave,Staten Island,NY,10309,667 Cornell Ave Staten Island NY 10309 ,41.2638147,-74.3253823,,2.00,,
Indigo Hemp Farms LLC,3508 SW 8th Street,Cape Coral,FL,33991,3508 SW 8th Street Cape Coral FL 33991 ,40.6309663,-74.1250923,432.00,20.00,10.00,0.00
Kanna Worx Industries LLC,49 Mountain View Terrace,Walden,NY,12586,49 Mountain View Terrace Walden NY 12586 ,26.6382641,-82.0473965,"3,000.00",6.00,,0.00
MJF LLC,182 Garber Lane,Winchester,VA,22602,182 Garber Lane Winchester VA 22602 ,41.5454228,-74.1260376,,15.00,,
Scottland Yard/Duane Scott,262 Hartford Rd,Brooktondale,NY,14817,262 Hartford Rd Brooktondale NY 14817 ,39.1581391,-78.1601503,"1,500.00",8.00,,
Van de Wetering Greenhouses Inc.,5784 Sound Ave,Jamesport,NY,11947,5784 Sound Ave Jamesport NY 11947 ,42.3971694,-76.3239958,"80,000.00",,,
Hempire Farms LLC,25 Longacres Road,Susquehanna,PA,18847,25 Longacres Road Susquehanna PA 18847 ,40.9794129,-72.6015652,900.00,17.00,,16.00
Jennifer Digney-Bihm,625 Depot Lane,Cutchogue,NY,11935,625 Depot Lane Cutchogue NY 11935 ,41.8708760,-75.6442530,"3,000.00",,202.50,11.00
Full Circle Organic Hemp,139 Eastwood Drive,Johnson City,NY,13790,139 Eastwood Drive Johnson City NY 13790 ,41.0142876,-72.4860695,"15,890.00",16.00,,12.00
Overland Hemp LLC,4967 Route 9G,Tivoli,NY,12583,4967 Route 9G Tivoli NY 12583 ,42.1880990,-76.0240170,,20.00,,
Forgie Farms LLC,669 E 237 St,Bronx,NY,10466,669 E 237 St Bronx NY 10466 ,42.0488930,-73.9008130,,15.00,,
Hemp for Healthy Lives LLC,14 E Stevens Hill Rd,Willseyville,NY,13864,14 E Stevens Hill Rd Willseyville NY 13864 ,40.8978850,-73.8562199,"5,760.00",1.00,,
La Dolce Vita Farms,3174 Hewlett Ave,Merrick,NY,11566,3174 Hewlett Ave Merrick NY 11566 ,42.2884467,-76.3987476,420.00,60.00,"4,058.00",5.00
Vetrun LLC,198 Haring Road,Barryville,NY,12719,198 Haring Road Barryville NY 12719 ,40.6438463,-73.5373496,"2,000.00",12.00,,6.00
Waterman's Greenhouses LLC,12317 Vaughn St,East Concord,NY,14055,12317 Vaughn St East Concord NY 14055 ,41.4758080,-74.8687080,"21,600.00",20.00,"1,980.10",3.30
Mount Vision Farms,549 Gardnertown Rd,Mt. Vision,NY,13810,549 Gardnertown Rd Mt. Vision NY 13810 ,42.5422522,-78.6399181,"1,500.00",2.00,,0.00
Infinite Love Farm LLC,6861 County Road 2,Bloomfield,NY,14469,6861 County Road 2 Bloomfield NY 14469 ,42.5949150,-75.0845400,"1,584.00",0.00,"2,054.00",0.00
Niver Farms LLC,3320 James Road,Keuka Park,NY,14478,3320 James Road Keuka Park NY 14478 ,42.8474106,-77.4058020,,10.00,,
Kokoro Farms LLC,10370 Main Street,Clarence,NY,14031,10370 Main Street Clarence NY 14031 ,42.6019480,-77.1265279,,70.00,,
Passion Field Farm LLC,343 N Tower Hill Road,Millbrook,NY,12545,343 N Tower Hill Road Millbrook NY 12545 ,42.9801790,-78.6005945,660.00,9.00,,6.80
Blue Sky Polo Club Realty Holding LLC,380 Bart Bull Rd,Middletown,NY,10941,380 Bart Bull Rd Middletown NY 10941 ,41.8164290,-73.6144700,"1,408.00",361.00,225.00,0.00
Hydro-Grow NY,4015 Oak Orchard Rd,Albion,NY,14411,4015 Oak Orchard Rd Albion NY 14411 ,41.4669020,-74.2893960,"15,000.00",15.00,"4,000.00",
Schaefer's Gardens Inc.,801 South Street,Chenango Forks,NY,13746,801 South Street Chenango Forks NY 13746 ,43.2180643,-78.1935356,"55,966.00",,,
YTS LLC,130 Rte 245,Rushville,NY,14544,130 Rte 245 Rushville NY 14544 ,42.3335232,-75.8794924,,24.00,,
Joshua E. Prior,241 Kline Rd,Penneville,NY,13132,241 Kline Rd Penneville NY 13132 ,42.7627667,-77.2274233,"5,100.00",20.00,"1,525.00",11.00
Whitman Nurseries Inc.,332 Manor Lane,Jamesport,NY,11947,332 Manor Lane Jamesport NY 11947 ,43.2545250,-76.2508250,,10.00,,0.00
Adirondack Hemp Company Inc.,162 County Route 67,Stillwater,NY,12170,162 County Route 67 Stillwater NY 12170 ,40.9602429,-72.5871299,"16,700.00",,"6,299.00",
WJF Farms LLC,8405 Cox Lane,Cutchogue,NY,11935,8405 Cox Lane Cutchogue NY 11935 ,43.0138761,-73.6771662,,12.00,322.00,3.98
Newbridge Greenhouses Inc.,926 Main Road,Riverhead,NY,11901,926 Main Road Riverhead NY 11901 ,41.0343172,-72.5034359,"8,000.00",2.00,"9,100.00",
Sterling Sunset Farm,1546 McFarland Road,Sterling,NY,13156,1546 McFarland Road Sterling NY 13156 ,40.9475318,-72.6096421,"4,220.00",23.00,,2.04
Nature's Cradle East Inc.,97 Wilson Avenue,Medford,NY,11763,97 Wilson Avenue Medford NY 11763 ,43.3696914,-76.6380448,,,,
Genestoso Farms LLC,240 Mountaindale Road,Woodridge,NY,12789,240 Mountaindale Road Woodridge NY 12789 ,40.8644702,-72.9742682,,12.00,,
Ahava Farms LLC,2008 County Road 24,New Berlin,NY,13411,2008 County Road 24 New Berlin NY 13411 ,41.6999842,-74.5509049,500.00,32.00,,5.20
Kris & Sue Herrgesell,3715 Bailey Rd,Bloomfield,NY,14469,3715 Bailey Rd Bloomfield NY 14469 ,42.6954545,-75.3536321,,2.00,,1.00
Dust and Rust Farm,109 Shaver Road,Harpersfield,NY,13786,109 Shaver Road Harpersfield NY 13786 ,42.8492490,-77.4470620,"6,100.00",6.00,,
Jack Bear Farm,113 Parker Rd,Worcester,NY,12197,113 Parker Rd Worcester NY 12197 ,42.4407007,-74.7121478,,13.00,,
Township Valley Farm,1359 Town Brook Rd,Hobart,NY,13788,1359 Town Brook Rd Hobart NY 13788 ,42.6029870,-74.7132919,"4,500.00",0.00,,0.10
Travis Loden,121 Webster Rd,Schoharie,NY,12157,121 Webster Rd Schoharie NY 12157 ,42.3689630,-74.6424460,,17.00,,
Watagan Piper Limited,4011 Klondike Road,Long Eddy,NY,12760,4011 Klondike Road Long Eddy NY 12760 ,42.6748570,-74.1893010,"1,000.00",24.00,,
Windy Hills Farms,3334 Hewlett Ave,Merrick,NY,11566,3334 Hewlett Ave Merrick NY 11566 ,41.9287683,-75.0986191,"1,706.00",18.00,50.00,4.00
Kingsley Farm Products LLC,112 Youngs Way,White Hall,NY,12887,112 Youngs Way White Hall NY 12887 ,40.6413545,-73.5340365,"4,880.00",6.00,,8.00
Maple Ledge Farms,395 Lykers Road,Central Bridge,NY,12035,395 Lykers Road Central Bridge NY 12035 ,43.5201734,-73.3742544,"27,952.00",48.00,,22.00
Shady Grove Dairy LLC,4407 East Rd,Turin,NY,13473,4407 East Rd Turin NY 13473 ,42.7248223,-74.3580875,,5.00,,
Robert LiVecchi,31 Palamino Drive,Rochester,NY,14623,31 Palamino Drive Rochester NY 14623 ,43.6369499,-75.3967542,"1,470.00",,174.00,
Hemp Certified Farms LLC,5009 County Road 12,East Meredith,NY,13757,5009 County Road 12 East Meredith NY 13757 ,43.0802954,-77.6050784,,67.00,,
Two Partners LLC,169 Crest Lane,Ancramdale,NY,12503,169 Crest Lane Ancramdale NY 12503 ,42.4231240,-74.8152340,,155.00,,
Ustawi Group LLC,58 Gard Ave,Bronxville,NY,10708,58 Gard Ave Bronxville NY 10708 ,42.0132108,-73.5718813,,44.00,,
Hemp of the Hudson Valley LLC,36 Cottage Street,Poughkeepsie,NY,12601,36 Cottage Street Poughkeepsie NY 12601 ,40.9467629,-73.8372947,"8,500.00",6.00,"1,100.00",
Jason Abounader,7404 Maple Rd,Akron,NY,14001,7404 Maple Rd Akron NY 14001 ,41.7073973,-73.9185760,400.00,0.00,"4,500.00",0.12
Phytoplantae LLC,4504 Zenner Road,Eden,NY,14057,4504 Zenner Road Eden NY 14057 ,43.0501920,-78.5135870,,52.00,,
Berube Botanicals,808 Cold Brook Rd,Vermontville,NY,12989,808 Cold Brook Rd Vermontville NY 12989 ,42.6324280,-78.8126350,"2,448.00",0.25,100.00,0.00
Luke Laskoski,59 Cayuga St,Seneca Falls,NY,13148,59 Cayuga St Seneca Falls NY 13148 ,44.4426826,-74.0006573,"1,200.00",4.00,,9.57
Greybeard Growers,1017 Main Road,Aquebogue,NY,11931,1017 Main Road Aquebogue NY 11931 ,42.9157889,-76.7943755,"21,000.00",,"12,200.00",
Hop-n-Hemp Teas Inc.,553 Smith Street,Buffalo,NY,14210,553 Smith Street Buffalo NY 14210 ,40.9472154,-72.6050772,"5,200.00",,835.00,
Amos Hilliker Dairy Farm LLC,222 Hilliker Rd,Chemung,NY,14825,222 Hilliker Rd Chemung NY 14825 ,42.8766128,-78.8437928,600.00,8.00,,1.00
Harmony Way Farming,85 Harmony Way,Eagle Bridge,NY,12057,85 Harmony Way Eagle Bridge NY 12057 ,42.0363110,-76.6107190,450.00,3.00,,
New Path Hemp Farm,2131 St Rte 40,Greenwich,NY,12834,2131 St Rte 40 Greenwich NY 12834 ,42.9648270,-73.3966510,,2.00,,0.00
A. Bulfamante Landscaping Inc.,68 Marion Drive,New Rochelle,NY,10804,68 Marion Drive New Rochelle NY 10804 ,43.0782550,-73.5331530,,25.00,,4.00
Cannbrosia LLC,9160 Dean Road,Boonville,NY,13309,9160 Dean Road Boonville NY 13309 ,40.9660977,-73.7850283,"5,000.00",3.00,,
Peter Pierce,150 Town Line Rd,Fort Edward,NY,12828,150 Town Line Rd Fort Edward NY 12828 ,43.4425350,-75.2802070,"1,500.00",5.00,,
Hemp Landing LLC,1748 James Street,Merrick,NY,11566,1748 James Street Merrick NY 11566 ,43.2955810,-73.5224860,250.00,60.00,,1.00
Wyllie Fox Farm,3745 Allen Rd,Cato,NY,13033,3745 Allen Rd Cato NY 13033 ,40.6458920,-73.5537217,"6,000.00",4.00,,
Little Fields Farm Inc.,4865 CR 48,Argyle,NY,12809,4865 CR 48 Argyle NY 12809 ,43.1918520,-76.4931439,"5,000.00",,,
G. Mortellaro & Sons Inc.,6550 Transit Road,Elba,NY,14058,6550 Transit Road Elba NY 14058 ,43.2358320,-73.4047710,,20.00,,
Kashou Enterprises Inc.,1500 Airport Rd,Binghamton,NY,13905,1500 Airport Rd Binghamton NY 13905 ,43.0972568,-78.1160408,"40,000.00",90.00,,
Full Harvest Group LLC,Mannys Corners Rd,Amsterdam,NY,12010,Mannys Corners Rd Amsterdam NY 12010 ,42.1575112,-75.9420407,"1,400.00",19.00,,10.73
Pierre McClain LLC dba Glenmere Farms,299 Pine Hill Rd,Chester,NY,10918,299 Pine Hill Rd Chester NY 10918 ,42.9555046,-74.1463763,,0.00,,
Meyer Hemp (Peter Meyer Jr.),6469 Erie Canal Rd,Glenfield,NY,13343,6469 Erie Canal Rd Glenfield NY 13343 ,41.3224883,-74.3103087,"5,500.00",18.50,,17.00
Gator Farms,374 Rt 7 West,Richmondville,NY,12149,374 Rt 7 West Richmondville NY 12149 ,43.7654278,-75.3162324,,6.00,,0.01
Graceful Roses LLC,2221 County Route 45,Fulton,NY,13069,2221 County Route 45 Fulton NY 13069 ,42.6517250,-74.6098820,"7,860.00",20.00,290.00,2.37
Citizen Science LLC,2251 South Fort Apache Road Ste 2042,Las Vegas,NV,89117,2251 South Fort Apache Road Ste 2042 Las Vegas NV 89117 ,43.3656490,-76.3318600,,2.00,,
Highland Meadows,1561 Van Auken Rd,Newark,NY,14513,1561 Van Auken Rd Newark NY 14513 ,36.1491414,-115.3010564,,18.00,,16.00
Abundant Grace Farms LLC,213 Harford Road,Brooktondale,NY,14817,213 Harford Road Brooktondale NY 14817 ,43.0641310,-77.0664740,,31.00,,
Frepic Farms LLC,4963 Walnut Cove Drive,Canandaigua,NY,14424,4963 Walnut Cove Drive Canandaigua NY 14424 ,42.3935792,-76.3286384,"84,912.00",,,
Maciel & Emmett Farms LLC,18 Dorn Rd,North Chatham,NY,12132,18 Dorn Rd North Chatham NY 12132 ,42.8690305,-77.2809051,"5,940.00",5.00,,
Walden Riverside Farm Inc.,90 Wallkill Rd,Walden,NY,12586,90 Wallkill Rd Walden NY 12586 ,42.4663098,-73.6307262,,10.00,,10.40
Carol Wolff & Deborah Shanaman dba Big Sky Ranch Holdings,30 Millstone Rd,Water Mill,NY,11976,30 Millstone Rd Water Mill NY 11976 ,41.5755250,-74.1946134,"25,226.00",3.00,"9,000.00",0.00
Tug Hill CBD,3434 State Route 177,Lowville,NY,13367,3434 State Route 177 Lowville NY 13367 ,40.9523178,-72.3285164,"2,000.00",2.00,,0.00
Brian F. Conlon,3887 Amsterdam Rd,Glenville,NY,12302,3887 Amsterdam Rd Glenville NY 12302 ,43.8003340,-75.6308783,"4,544.00",60.00,"2,836.00",0.01
American,361 Walsh Avenue,New Windsor,NY,12533,361 Walsh Avenue New Windsor NY 12533 ,42.8624800,-74.0193470,,30.00,,
BYG LLC,305 West Main St,Endicott,NY,13760,305 West Main St Endicott NY 13760 ,41.4883095,-74.0133781,"13,800.00",93.00,"8,505.00",54.10
Henry S. Miller,8923 Old Rt 31,Lyons,NY,14489,8923 Old Rt 31 Lyons NY 14489 ,42.0947714,-76.0690415,,14.00,,5.00
John H. Shettler,3543 Arcadia Zurich Norris Rd,Lyons,NY,14489,3543 Arcadia Zurich Norris Rd Lyons NY 14489 ,43.0677163,-76.9599379,,14.00,,3.00
Glensite Stock,4696 State Route 41,Cortland,NY,13045,4696 State Route 41 Cortland NY 13045 ,43.1342030,-77.0495390,"14,496.00",34.00,448.00,4.00
Reap Ranch,67 Cumber Rd,Waverly,NY,14892,67 Cumber Rd Waverly NY 14892 ,42.5931229,-76.1186540,,10.00,,
Rippin' Ridge Farm LLC,Number 9 Road,Cazenovia,NY,13035,Number 9 Road Cazenovia NY 13035 ,42.0796060,-76.4745530,"9,600.00",33.00,,0.00
Steven Bogdanski,205 Bogdanski Ln,Pine Island,NY,10969,205 Bogdanski Ln Pine Island NY 10969 ,42.9182459,-75.8471468,"14,640.00",61.00,,
Long Mountain LLC,31 Springhill Dr,Pine City,NY,14871,31 Springhill Dr Pine City NY 14871 ,41.2982640,-74.4923410,200.00,2.00,,0.00
Morrow Farm LLC,15626 County Rt 12,La Fargeville,NY,13656,15626 County Rt 12 La Fargeville NY 13656 ,42.0213437,-76.8752039,,63.00,,
D.A. Goudreau Inc.,17563 County Route 90,Mannsville,NY,13661,17563 County Route 90 Mannsville NY 13661 ,43.4850283,-75.3315336,,3.00,,2.00
Partner First Farms LLC,349 Lakeview Drive,Dexter,NY,13634,349 Lakeview Drive Dexter NY 13634 ,43.0899629,-75.7631979,"2,400.00",45.00,495.00,16.00
Claverack Farm,370 Route 23B,Hudson,NY,12534,370 Route 23B Hudson NY 12534 ,44.0066700,-76.0500243,"10,763.00",12.00,892.25,5.10
Bonz LLC,1787 E Palmyra Port Gibson Rd,Palmyra,NY,14522,1787 E Palmyra Port Gibson Rd Palmyra NY 14522 ,42.2320050,-73.7521673,,31.00,,15.00
Charles Fields,236 Podunk Rd,Trumansburg,NY,14886,236 Podunk Rd Trumansburg NY 14886 ,43.0747688,-77.1581609,,18.00,,
Chandler Farms,690 Soundview Ave,Mattituck,NY,11952,690 Soundview Ave Mattituck NY 11952 ,42.4666030,-76.6548679,,50.00,,
Ervin Mast,4754 S Geneva Rd,Lyons,NY,14489,4754 S Geneva Rd Lyons NY 14489 ,41.0161019,-72.5406000,,12.00,,2.00
Sebastiano Bulfamante,99 Colonial Place,New Rochelle,NY,10801,99 Colonial Place New Rochelle NY 10801 ,43.1758950,-77.0062520,"7,250.00",23.00,"2,874.00",13.20
Crystal Sound Farm,8999 Route 353,Gowanda,NY,14070,8999 Route 353 Gowanda NY 14070 ,40.9129097,-73.7962689,,16.00,,
Matt Goodman Farms,2604 County Rd 4,Stanley,NY,14561,2604 County Rd 4 Stanley NY 14561 ,42.4339059,-78.9440775,"3,000.00",7.00,,
Point Rock Farms LLC,9459 Point Rock Rd,Taberg,NY,13471,9459 Point Rock Rd Taberg NY 13471 ,42.9010541,-77.1312811,"5,000.00",27.00,,0.00
Truax Farms LLC,1423 Lutheranville Rd,East Worcester,NY,12064,1423 Lutheranville Rd East Worcester NY 12064 ,43.3203871,-75.5509028,"2,400.00",60.00,,4.00
Cornucopia Growers LLC,222 Manor Creek Rd,Gilboa,NY,12076,222 Manor Creek Rd Gilboa NY 12076 ,42.5923869,-74.6484603,20.00,2.00,,0.20
Upstate Hemp Farms LLC,172 Madison Ave,Albany,NY,12202,172 Madison Ave Albany NY 12202 ,42.3917251,-74.3148347,"5,800.00",13.00,"20,000.00",0.50
Shemp Brook,476 White Church Road,Brooktondale,NY,14817,476 White Church Road Brooktondale NY 14817 ,42.6465154,-73.7577690,"1,269.00",1.00,"2,000.00",1.00
Triple HHH Farm LLC,1986 Crawford Road,Rotterdam,NY,12306,1986 Crawford Road Rotterdam NY 12306 ,42.3516550,-76.3951410,"1,872.00",4.00,"3,744.00",5.00
Andy Hershberger,5351 S Geneva Rd,Sodus,NY,14551,5351 S Geneva Rd Sodus NY 14551 ,42.8502030,-74.0366740,,33.00,,5.00
Bennie Hershberger,2486 Bastian Rd,Lyons,NY,14489,2486 Bastian Rd Lyons NY 14489 ,43.1945520,-77.0159750,,9.00,,
Robert Smith Farm,15635 Brown School House Rd,Holley,NY,14470,15635 Brown School House Rd Holley NY 14470 ,43.0971260,-77.0079510,,5.00,,0.00
Falcon's Fields LLC,200 Pells Road,Rhinebeck,NY,12572,200 Pells Road Rhinebeck NY 12572 ,43.1736450,-78.1056790,,82.00,,
Hemp Nirvana,214 Dobbs Ferry Rd,White Plains,NY,10607,214 Dobbs Ferry Rd White Plains NY 10607 ,41.9567679,-73.8538160,"2,000.00",,"2,700.00",
Tioga Point,0 Lathrop Hill Road,Candor,NY,13743,0 Lathrop Hill Road Candor NY 13743 ,41.0405634,-73.8023142,,3.00,,
Rainbow's End Organic Dairy Farm,79 Woolen Mill Rd,Fort Covington,NY,12937,79 Woolen Mill Rd Fort Covington NY 12937 ,42.2807913,-76.2814905,,0.00,,
Leslie Davis,3139 Stanton Hill Rd,Nichols,NY,13812,3139 Stanton Hill Rd Nichols NY 13812 ,44.9814733,-74.4818090,"5,200.00",5.00,"3,882.50",7.75
Lakeside Farm Properties LLC,428 County Route 3,Putnam Station,NY,12861,428 County Route 3 Putnam Station NY 12861 ,42.0806667,-76.2757216,140.00,2.00,,
Laura Simpson,12 Heath St,Corinth,NY,12822,12 Heath St Corinth NY 12822 ,43.7333617,-73.3762313,350.00,2.00,100.00,0.01
American Weed LLC,11527 Regan Lee Lane,Cato,NY,13033,11527 Regan Lee Lane Cato NY 13033 ,43.2454771,-73.8169329,"1,736.00",2.00,"1,440.00",6.08
Our Family Hempstead,179 Wylie Road,Harpursville,NY,13787,179 Wylie Road Harpursville NY 13787 ,43.1745795,-76.5155156,"1,470.00",50.00,"1,470.00",1.00
Natural Hemp LLC,90 State Street Suite 700,Albany,NY,12207,90 State Street Suite 700 Albany NY 12207 ,42.2537650,-75.7267390,,6.00,,
BLG Farm LLC,166 Charlton Rd,Ballston Spa,NY,12020,166 Charlton Rd Ballston Spa NY 12020 ,42.6496491,-73.7532679,,5.00,,
NX Brands Inc.,1069 Main Street #210,Holbrook,NY,11741,1069 Main Street #210 Holbrook NY 11741 ,42.9566170,-73.8897660,"2,200.00",,,
Unhinged Hemp Farms,370 Gifford Road,Hannibal,NY,13074,370 Gifford Road Hannibal NY 13074 ,40.8101896,-73.0766247,"3,602.00",6.00,,1.00
Slow Fox Farm,41 Lake Drive,Rhinebeck,NY,12572,41 Lake Drive Rhinebeck NY 12572 ,43.2829550,-76.5116680,"7,600.00",5.00,25.00,0.00
Nykola Okal,2681 Holmes Rd,Weedsport,NY,13166,2681 Holmes Rd Weedsport NY 13166 ,41.8810190,-73.8253090,"2,000.00",32.00,,0.00
Glass House Farms,10 Pinckney Road,Ithaca,NY,14850,10 Pinckney Road Ithaca NY 14850 ,43.0875931,-76.5633403,"11,000.00",,"10,200.00",
Great Lakes Farms DBA,5680 Quaker Hill Rd,Elba,NY,14058,5680 Quaker Hill Rd Elba NY 14058 ,42.4707557,-76.4065007,"2,500.00",40.00,0.75,1.50
Meyer's Homegrown LLC,9800 Zimmerman Rd,Boston,NY,14025,9800 Zimmerman Rd Boston NY 14025 ,43.1369849,-78.1941167,,2.00,,0.00
The Farm Assist LLC,6607 Bartlett Road,Rome,NY,13440,6607 Bartlett Road Rome NY 13440 ,42.6134797,-78.7699575,,10.00,,
Good Roots NY LLC/Ryan Wieder,967 Jackson Creek Roa,Cayuta,NY,14824,967 Jackson Creek Roa Cayuta NY 14824 ,43.1825387,-75.4303075,,7.00,,1.00
Green Mountain Organics,207 Ashley Hill Road,Brainard,NY,12024,207 Ashley Hill Road Brainard NY 12024 ,42.2287610,-76.7135580,"6,500.00",5.00,,1.40
Gjonaj Farms LLC,223 Ness Hill Rd,Otego,NY,13825,223 Ness Hill Rd Otego NY 13825 ,42.4848799,-73.5344090,,55.00,,
Niagara Hemp Supply LLC,2023 Military Road,Niagara Falls,NY,14304,2023 Military Road Niagara Falls NY 14304 ,42.4064560,-75.2408030,"7,750.00",45.00,,8.00
Grandview Natural Farms,2445 Wilson Creek Road,Newark Valley,NY,13811,2445 Wilson Creek Road Newark Valley NY 13811 ,43.0986556,-78.9755856,"4,000.00",80.00,,17.50
Bag Farm,2203 Clymer Sherman Rd,Clymer,NY,14724,2203 Clymer Sherman Rd Clymer NY 14724 ,42.2693597,-76.1545638,,12.00,,
Quixote Vision,205 Drummond Drive,Ballston Spa,NY,12020,205 Drummond Drive Ballston Spa NY 12020 ,42.1012715,-79.6270443,,1.00,,
MDI Properties LLC,2616 Ashton Court,Endicott,NY,13760,2616 Ashton Court Endicott NY 13760 ,43.0394218,-73.8767536,,20.00,,0.00
William F. Gersitz,8064 Bleistein Road,Colden,NY,14033,8064 Bleistein Road Colden NY 14033 ,42.1290660,-76.0386696,"2,400.00",,"4,800.00",
Kennedy's Herbal Solution,320 State Route 372,Cambridge,NY,12816,320 State Route 372 Cambridge NY 12816 ,42.6633270,-78.6449860,"2,292.00",4.00,,1.00
Graceland Ranch Inc.,12 Leary Lane,Nesconset,NY,11767,12 Leary Lane Nesconset NY 11767 ,43.0486050,-73.4100240,"4,000.00",17.00,"6,000.00",2.00
Henry Flemming,16275 Canal Road,Holley,NY,14420,16275 Canal Road Holley NY 14420 ,40.8404565,-73.1557738,,2.00,,
Elderberry Pond LLC,3728 Center Street Road,Auburn,NY,13021,3728 Center Street Road Auburn NY 13021 ,43.2546184,-78.0669983,,2.00,,0.03
Family Tree Farms,128 West Hill Road,Spencer,NY,14883,128 West Hill Road Spencer NY 14883 ,42.9741030,-76.4946530,,8.00,,
Owego Hemp LLC,928 State Route 17C,Owego,NY,13827,928 State Route 17C Owego NY 13827 ,42.2269530,-76.5190260,"1,000.00",1.00,225.00,0.00
Kutalek Farm,101 Kutalek Road,Kirkwood,NY,13795,101 Kutalek Road Kirkwood NY 13795 ,42.0991513,-76.2362116,"3,776.00",5.00,,
Paul L. Baran,5997 Sayles Corners Road,Moravia,NY,13118,5997 Sayles Corners Road Moravia NY 13118 ,42.0522939,-75.7768242,,5.00,,
Emerris Holdings LLC,1053 County Route 6,Fulton,NY,13069,1053 County Route 6 Fulton NY 13069 ,42.7644541,-76.3427153,,30.00,,
Unifi Group LLC,90 State Street Ste 700,Albany,NY,12207,90 State Street Ste 700 Albany NY 12207 ,43.3163647,-76.3554991,,5.00,,0.20
Daren Tolz,289 Dales Bridge Road,Germantown,NY,10504,289 Dales Bridge Road Germantown NY 10504 ,42.6496491,-73.7532679,,2.00,,
Bigsby Market LLC,71 Sheldon Road,Freeville,NY,13068,71 Sheldon Road Freeville NY 13068 ,42.1527569,-73.8461776,"6,000.00",1.00,,
Birch & Bloom LLC,263 Piper Road,Newfield,NY,14867,263 Piper Road Newfield NY 14867 ,42.4974283,-76.3976173,"2,500.00",1.00,,0.27
Doug's Field of Dreams LLC,37 Francis Avenue,Buffalo,NY,14212,37 Francis Avenue Buffalo NY 14212 ,42.3356618,-76.5515099,"2,400.00",5.00,,0.00
Hype-Labs,4476 Main Street #104,Amherst,NY,14226,4476 Main Street #104 Amherst NY 14226 ,42.8958595,-78.7871595,,18.00,,
Paul's Organic Farm,8213 Center Street,Holland,NY,14080,8213 Center Street Holland NY 14080 ,42.9635868,-78.7846416,"3,350.00",1.00,"1,500.00",3.50
Watson Ventures LLC,360 Windmill Road,Colton,NY,13625,360 Windmill Road Colton NY 13625 ,42.6598031,-78.6151136,,16.00,,
Patriot Farms,1954 Dublin Road,Penfield,NY,14526,1954 Dublin Road Penfield NY 14526 ,44.5327326,-74.8871230,640.00,40.00,,4.25
Reef Crops LLC,6305 Court Street Road,Easy Syracuse,NY,13057,6305 Court Street Road Easy Syracuse NY 13057 ,43.1410190,-77.4218620,"193,006.00",20.00,71.00,6.00
Hindsight Farm,5331 Heverly Road,Trumansburg,NY,14886,5331 Heverly Road Trumansburg NY 14886 ,43.0903367,-76.0843844,,4.00,,0.08
Sativa Nova US Corporation,9 East Loockerman Street Ste 202,Dover,DE,19901,9 East Loockerman Street Ste 202 Dover DE 19901 ,42.4751490,-76.7647620,"1,920.00",6.00,,
Fleming Valley Homestead,4650 County Highway 14,Treadwell,NY,13846,4650 County Highway 14 Treadwell NY 13846 ,39.1595766,-75.5203063,,4.00,,4.00
3XC OZBP I LLC,2484 Frankel Blvd,Merrick,NY,11566,2484 Frankel Blvd Merrick NY 11566 ,42.3437173,-75.0495355,,70.00,,
Heartstone Organic Farm,7529 Reeds Corners Rd,Dansville,NY,14437,7529 Reeds Corners Rd Dansville NY 14437 ,40.6539678,-73.5395951,600.00,10.25,0.24,
Island Grow LLC,"474 Westbury Ave, Unit 5",Carle Place,NY,11514,"474 Westbury Ave, Unit 5 Carle Place NY 11514 ",42.6565630,-77.6675900,"12,500.00",0.25,"26,068.00",0.37
Jon Bower,787 Green Lake Road,Catskill,NY,12414,787 Green Lake Road Catskill NY 12414 ,40.7504265,-73.6073157,"1,200.00",0.00,128.00,0.50
3XC OZBP II LLC,2909 Frankel Blvd,Merrick,NY,11566,2909 Frankel Blvd Merrick NY 11566 ,42.3059350,-73.8780000,,27.00,,
Gage Farms,3121 Route 54A,Keuka Park,NY,14478,3121 Route 54A Keuka Park NY 14478 ,40.6514707,-73.5372116,,14.00,,15.00
Kannabis Trading Co.,54 Steam Whistle Drive,Warminster,PA,18974,54 Steam Whistle Drive Warminster PA 18974 ,42.6088336,-77.1118039,,25.00,,
MAF Cultivators Inc.,2994 Lowell Ave,Wantagh,NY,11793,2994 Lowell Ave Wantagh NY 11793 ,40.2272731,-75.0645688,,2.00,,
The Eclectic Farmstead,5716 McKee Road,Newfane,NY,14108,5716 McKee Road Newfane NY 14108 ,40.6730206,-73.5198631,768.00,2.00,,0.64
Hudson River Hemp LLC,"20 Corporate Park Drive, Suite C",Hopewell Junction,NY,12533,"20 Corporate Park Drive, Suite C Hopewell Junction NY 12533 ",43.2724230,-78.7200809,"30,500.00",56.00,,3.00
Feather Farm,2545 Lucas Turnpike,High Falls,NY,12440,2545 Lucas Turnpike High Falls NY 12440 ,41.5374089,-73.8399695,"3,000.00",0.00,,0.00
P&R Farms,Daboll Road,Memphis,NY,13112,Daboll Road Memphis NY 13112 ,41.8152106,-74.1616634,"3,520.00",5.00,90.00,1.50
Dutchtown Farms LLC,70 Dutchtown Road,Ouaquaga,NY,13826,70 Dutchtown Road Ouaquaga NY 13826 ,43.1080926,-76.4083269,,245.00,,15.00
Frank Nuciola,PO Box 12,Sodus,NY,14551,PO Box 12 Sodus NY 14551 ,42.1060576,-75.6348790,"1,200.00",10.00,,2.00
Hunter Pharms (Formerly Timothy Hunter),3216 Jeffery Road,Palmyra,NY,14522,3216 Jeffery Road Palmyra NY 14522 ,43.2236974,-77.0334179,,17.00,,12.00
Joshua Adam Wilson,1168 Victor Road,Macedon,NY,14502,1168 Victor Road Macedon NY 14502 ,43.0920203,-77.2260329,"1,400.00",,360.00,
Mark Poretta II,223 Canandaigua Street,Palmyra,NY,14522,223 Canandaigua Street Palmyra NY 14522 ,43.0511740,-77.3326050,,33.00,,0.00
Weaver Road Farms LLC,9391 Center Road,Fredonia,NY,14063,9391 Center Road Fredonia NY 14063 ,43.0601780,-77.2339210,"10,870.00",3.00,"6,018.00",0.12
Peter Downes & Son Inc.,280 Crawford Street,Pine Bush,NY,12566,280 Crawford Street Pine Bush NY 12566 ,42.4067121,-79.2372293,,9.00,,
Del Vino Vineyards,29 Norwood Road,Northport,NY,11768,29 Norwood Road Northport NY 11768 ,41.5896550,-74.3639710,320.00,2.00,,0.00
Wild Turkey Farm LLC,420 E 55th Street 9D,New York,NY,10022,420 E 55th Street 9D New York NY 10022 ,40.9134190,-73.3248120,"1,000.00",1.00,,0.00
Hemp Yankee LLC,323 Fish Hill Road,Marathon,NY,13803,323 Fish Hill Road Marathon NY 13803 ,40.7562471,-73.9625705,,18.00,,
Newcombs Farm,1498 Thacher Park Road,East Berne,NY,12059,1498 Thacher Park Road East Berne NY 12059 ,42.4215040,-75.9596320,,9.00,,
P & B Tru Farm LLC,2054 County Road 24,New Berlin,NY,13411,2054 County Road 24 New Berlin NY 13411 ,42.6300582,-74.0628063,,30.00,,
42 Degrees LLC,206 Glen Street,Glens Falls,NY,12801,206 Glen Street Glens Falls NY 12801 ,42.7084361,-75.3658340,,40.00,,
David Allen,186 Westkill Road,Jefferson,NY,12093,186 Westkill Road Jefferson NY 12093 ,43.3099656,-73.6452967,,3.00,,
Geoponic Husbandry Operations and Support Technologies,213 Tioga Street #665,Ithaca,NY,14851,213 Tioga Street #665 Ithaca NY 14851 ,42.4869623,-74.5930319,,950.00,,0.00
Thunderbird Farms LLC,6 Sodrick Lane,Pine Island,NY,10969,6 Sodrick Lane Pine Island NY 10969 ,42.4410913,-76.4963509,,5.00,,1.36
TJ Enterprise Inc.,455 Snyders Corners Road,Poestenkill,NY,12140,455 Snyders Corners Road Poestenkill NY 12140 ,41.3186160,-74.4465790,"100,000.00",,,
PROPER reLEAF,5660 Groveland Hill Road,Geneseo,NY,14454,5660 Groveland Hill Road Geneseo NY 14454 ,42.6830534,-73.5882364,920.00,4.40,250.00,3.00
John Rudl Jr dba Lime Ledge Farms,3982 Miller Road,Auburn,NY,13021,3982 Miller Road Auburn NY 13021 ,42.7399631,-77.7589544,,18.00,,
White Tail Farms,18 Beldon Ryan Road,Berkshire,NY,13736,18 Beldon Ryan Road Berkshire NY 13736 ,42.9818150,-76.4767449,,10.00,,
A Kumbaya Enterprise LLC,3378 Pine Hill Road,Marathon,NY,13803,3378 Pine Hill Road Marathon NY 13803 ,42.3394083,-76.1940865,500.00,0.00,,0.10
Waldo's Water Farm,136 N Cross Road,Lagrangeville,NY,12540,136 N Cross Road Lagrangeville NY 12540 ,42.4823639,-76.0506050,,1.00,"20,000.00",
Cyrus J. Padgett,2 Park Street,Addison,NY,14801,2 Park Street Addison NY 14801 ,41.6777080,-73.7488300,,28.00,,3.00
Sensei Growth Consulting LLC,1 Hunter Road,Washingtonville,NY,10992,1 Hunter Road Washingtonville NY 10992 ,42.0995808,-77.2356880,"2,160.00",,,
Maria Learn-Heal and Adam Joseph Mozdyniewicz,4744 County Route 10,Cameron,NY,14819,4744 County Route 10 Cameron NY 14819 ,41.4419341,-74.1497553,,11.00,,11.00
Audrey Mayette,3348 Lisk Road,Odessa,NY,14869,3348 Lisk Road Odessa NY 14869 ,42.1991641,-77.4063469,"4,700.00",1.00,,0.68
Schoharie Valley Hemp,149 Bridge Street,Schoharie,NY,12157,149 Bridge Street Schoharie NY 12157 ,42.3967771,-76.7490950,"12,000.00",60.00,,0.00
Jake Davis,109 Main Street,Esperance,NY,12206,109 Main Street Esperance NY 12206 ,42.6623389,-74.3203000,"2,800.00",18.00,"4,050.00",0.00
Dayspring Company,1321 Bellows Road,Baldwinsville,NY,13027,1321 Bellows Road Baldwinsville NY 13027 ,42.7648930,-74.2668710,"3,400.00",21.00,,0.03
Song Valley Organic Farms,4930 Millersport Hwy,East Amherst,NY,14051,4930 Millersport Hwy East Amherst NY 14051 ,43.2075370,-76.4124960,"3,000.00",1.00,100.00,0.23
Cedarland Development Group,60 Lakefront Blvd Ste 310,Buffalo,NY,14202,60 Lakefront Blvd Ste 310 Buffalo NY 14202 ,43.0687633,-78.7123899,"89,000.00",,,
Brice Marden,12 Rose Hill Lane,Tivoli,NY,12583,12 Rose Hill Lane Tivoli NY 12583 ,42.8819800,-78.8832151,,1.00,,1.21
Plant Connection Inc.,5873 Sound Avenue,Riverhead,NY,11901,5873 Sound Avenue Riverhead NY 11901 ,42.0650691,-73.9235507,,20.00,,
MegCar LLC,363 Eastern Boulevard,Watertown,NY,13601,363 Eastern Boulevard Watertown NY 13601 ,40.9796895,-72.5990631,"14,000.00",400.00,,400.00
Mills Family Farm,1725 Ham Road,Basom,NY,14013,1725 Ham Road Basom NY 14013 ,43.9720328,-75.8798781,,"1,704.00",,0.10
Founding Farmerz LLC,11 Sagamore Lane,East Brunswick,NJ,8816,11 Sagamore Lane East Brunswick NJ 8816 ,43.0861460,-78.3590679,,7.00,,
Fare Thee Well Farm Inc.,671 South Ave,Jamestown,NY,14701,671 South Ave Jamestown NY 14701 ,40.4153428,-74.4278768,"1,680.00",0.00,"2,440.00",
Homegrown Hemp at RBF,114 Prospect Hill Road,Pine Plaines,NY,12567,114 Prospect Hill Road Pine Plaines NY 12567 ,42.0737320,-79.2515279,,4.00,,
David Dzielak,1427 Richard Road,Skaneateles,NY,13152,1427 Richard Road Skaneateles NY 13152 ,41.9991800,-73.6127700,550.00,46.00,,0.05
Twin Valley Farms,6970 Twin Valley Terrace,Almond,NY,14804,6970 Twin Valley Terrace Almond NY 14804 ,42.8399090,-76.3198589,,121.00,,
Tadt Services LLC,509 W Main Street,Fredonia,NY,14063,509 W Main Street Fredonia NY 14063 ,42.3041515,-77.7502526,"4,000.00",3.00,,0.50
Humbert Farms LLC,3896 Lake Corners Rd - Rose Valley Rd,Clyde,NY,14433,3896 Lake Corners Rd - Rose Valley Rd Clyde NY 14433 ,42.4283990,-79.3516099,,12.00,,6.00
Angeli.Co LLC dba State Bridge Farm,5985 State Route 46,Durhamville,NY,13054,5985 State Route 46 Durhamville NY 13054 ,43.0842314,-76.8694049,,23.00,,
Black Rock Holistic Health Center LLC,4 Calderwood Court,Bridgeport,CT,6605,4 Calderwood Court Bridgeport CT 6605 ,43.1517642,-75.6762226,900.00,50.00,,1.00
Leisuretime Greenhouses,2484 State Highway 67,West Charlton,NY,12010,2484 State Highway 67 West Charlton NY 12010 ,41.1538922,-73.2215272,"38,140.00",189.00,"1,914.50",219.46
ReliefLeaf LLC,2612 Route 52,Hopewell Junction,NY,12533,2612 Route 52 Hopewell Junction NY 12533 ,42.9739660,-74.0507780,600.00,32.00,,10.00
Dave Bender,7114 Hunters Creek Road,South Wales,NY,14139,7114 Hunters Creek Road South Wales NY 14139 ,41.5548072,-73.7822933,"1,500.00",0.00,,0.00
Brian Hisert,204 Eaker Road,Fort Plain,NY,13339,204 Eaker Road Fort Plain NY 13339 ,42.6902470,-78.5188950,,21.00,,1.00
The Trim Reaper,5395 Purcell Road,Hemlock,NY,14466,5395 Purcell Road Hemlock NY 14466 ,42.9844687,-74.5142393,700.00,1.00,92.00,0.00
Silver Fin Lodge Inc.,17799-801 County Hwy 17,Roscoe,NY,12776,17799-801 County Hwy 17 Roscoe NY 12776 ,42.7633168,-77.5669347,"23,100.00",,"4,800.00",
Tallulah Jack's,3560 Five Mile Road,Allegany,NY,14706,3560 Five Mile Road Allegany NY 14706 ,41.9663500,-75.0068280,"4,000.00",5.00,,0.00
Green Man's Garden,190 West Falls Road,West Falls,NY,14170,190 West Falls Road West Falls NY 14170 ,42.1539000,-78.4995470,500.00,,,
Eric Niermeyer,704 Princeton Drive,Vestal,NY,13850,704 Princeton Drive Vestal NY 13850 ,42.7175474,-78.6667771,,169.00,,
Northeast Botanicals Distribution LLC,"1100 Military Road, Unit #1",Kenmore,NY,14219,"1100 Military Road, Unit #1 Kenmore NY 14219 ",42.0862509,-76.0063001,"5,000.00",,,
Morgiewicz Produce Inc.,406 Pulaski Highway,Goshen,NY,10924,406 Pulaski Highway Goshen NY 10924 ,42.9623533,-78.8898272,,15.00,,
Flower Brooke Farms,7260 State Route 22,Granville,NY,12832,7260 State Route 22 Granville NY 12832 ,41.3178547,-74.4400828,150.00,24.00,,0.50
Bianchi Davis Greenhouse Inc.,286 Doctor's Path,Riverhead,NY,11901,286 Doctor's Path Riverhead NY 11901 ,43.3069850,-73.2719700,"18,800.00",,"46,950.00",
Emily Kyle Nutrition LLC,6136 Decker Road,Livonia,NY,14487,6136 Decker Road Livonia NY 14487 ,40.9457205,-72.6546246,,3.00,,0.00
Stillwater Farms LLC,1977 Rand Hill Road,Altona,NY,12910,1977 Rand Hill Road Altona NY 12910 ,42.7703230,-77.6851670,160.00,0.00,160.00,0.00
Daniel McPike,336 Blythe Road,Hannibal,NY,13074,336 Blythe Road Hannibal NY 13074 ,44.7935454,-73.6609476,,5.00,,2.00
Lincoln Rich,8696 Bishop Road,Lyons,NY,14489,8696 Bishop Road Lyons NY 14489 ,43.3501800,-76.6031020,,6.00,,0.00
Fen's Edge Farm,307 East Mountain Rd South,Cold Spring,NY,10516,307 East Mountain Rd South Cold Spring NY 10516 ,43.0908027,-76.9708466,,1.00,,
"United States Department of Agriculture, Plant Genetic Resources Unit (USDA PGRU)",630 West North Street,Geneva,NY,14456,630 West North Street Geneva NY 14456 ,41.4704477,-73.9030286,"3,300.00",,,
Palaca Dew Farm LLC,32 Douglaston Drive,Plattsburgh,NY,12901,32 Douglaston Drive Plattsburgh NY 12901 ,42.8774685,-77.0071906,"1,200.00",0.00,,
Knock On Hemp LLC,50 East Sandford Blvd,Mount Vernon,NY,10550,50 East Sandford Blvd Mount Vernon NY 10550 ,44.7679929,-73.4887827,"1,000.00",2.00,,
Hemp Grow NY LLC,49 John Hicks Drive,Warwick,NY,10990,49 John Hicks Drive Warwick NY 10990 ,40.8999014,-73.8298221,"2,500.00",,6.00,
Homecrest Farm,170 Robs Road,Old Chatham,NY,12136,170 Robs Road Old Chatham NY 12136 ,41.2743443,-74.3101483,,2.00,,
The Malitta Ride LLC,7961 State Route 5,Little Falls,NY,13365,7961 State Route 5 Little Falls NY 13365 ,42.3920423,-73.5728404,"1,500.00",40.00,423.00,1.50
Circle G Ranch NY LLC,30-75 14th Street,Astoria,NY,11102,30-75 14th Street Astoria NY 11102 ,43.0261669,-74.7899578,"1,440.00",5.00,"2,900.00",1.44
Miranda Hemp Farm,403B Elizabeth Street,Mechanicville,NY,12118,403B Elizabeth Street Mechanicville NY 12118 ,40.7689205,-73.9311794,,3.00,,0.01
Sunnyville Farms,14145 State Highway 37,Massena,NY,13662,14145 State Highway 37 Massena NY 13662 ,42.9069034,-73.6940233,"2,400.00",5.00,410.00,1.04
Green Spade Farms LLC,156 Langlitz Road,Westtown,NY,10998,156 Langlitz Road Westtown NY 10998 ,44.9091212,-75.0317424,"2,900.00",,,
Good Life Farm,4017 Hickock Road,Interlaken,NY,14847,4017 Hickock Road Interlaken NY 14847 ,41.3348830,-74.5621820,"1,440.00",0.00,,0.16
Genetics Guru,1909 Hawleyton Rd,Binghamton,NY,13903,1909 Hawleyton Rd Binghamton NY 13903 ,42.6083543,-76.6990059,"37,424.00",0.30,,
Keepers of the Hemp,"3211 E Flamingo Road, 101",Las Vegas,NY,89121,"3211 E Flamingo Road, 101 Las Vegas NY 89121 ",42.0665720,-75.9291750,,10.00,,
Bio Natural Organics Inc.,28 Hildreth Lane,Sagoponack,NY,11962,28 Hildreth Lane Sagoponack NY 11962 ,36.1142373,-115.1049104,"5,000.00",,,
Chickidoo Hempstead,199 Tally Ho Road,Middletown,NY,10940,199 Tally Ho Road Middletown NY 10940 ,40.9445787,-72.2798182,500.00,0.50,,0.01
Boisvert Farms,429 Hines Road,Newfield,NY,14867,429 Hines Road Newfield NY 14867 ,41.4542061,-74.5045003,,2.00,,0.01
Hedonic Tonic LLC dba Earthy Bloom Nursery,4 Avon Place,Albany,NY,12203,4 Avon Place Albany NY 12203 ,42.3975764,-76.6308696,112.00,,54.00,
Maple Shore Estates LLC,13400 Sage Thrasher Lane,Charlotte,NC,28278,13400 Sage Thrasher Lane Charlotte NC 28278 ,42.6732294,-73.8182655,,15.00,,1.10
Natural Industries LLC,4476 Main Street Suite 106,Amherst,NY,14226,4476 Main Street Suite 106 Amherst NY 14226 ,35.1435086,-81.0385899,"75,000.00",,,
Emerald City NY LLC/Green Spectrums,46 Foster Road Suite 1,Hopewell Junction,NY,12533,46 Foster Road Suite 1 Hopewell Junction NY 12533 ,42.9639799,-78.7845759,"1,500.00",,,
LPC Naturals LLC,8545 Main Street,Clarence,NY,14031,8545 Main Street Clarence NY 14031 ,41.5916454,-73.7969047,600.00,,100.00,
HEALium LLC,978 Ridge Road,Schenectady,NY,12302,978 Ridge Road Schenectady NY 12302 ,42.9822160,-78.5770812,"2,000.00",,600.00,
HydrOrganic Farms LLC,338 Main Street,East Setauket,NY,11733,338 Main Street East Setauket NY 11733 ,42.8713818,-73.9901531,960.00,,21.00,
MountainTop Hemp,PO Box 681 County Route,Accord,NY,12404,PO Box 681 County Route Accord NY 12404 ,40.9435187,-73.0967633,"2,100.00",5.00,,
Woods of Wellness LLC,14 Old Forge Road #2,Woodstock,NY,12498,14 Old Forge Road #2 Woodstock NY 12498 ,41.7856489,-74.2290366,260.00,6.00,3.88,2.00
CNY Restorations,1366 Lestina Beach Road,Bridgeport,NY,13030,1366 Lestina Beach Road Bridgeport NY 13030 ,42.0416423,-74.1191131,120.00,3.00,27.00,0.38
CBD HEMP Ventures LLC,655 Stark Terrace,Ballston Spa,NY,12020,655 Stark Terrace Ballston Spa NY 12020 ,43.1569645,-75.9032932,800.00,1.00,,
Of an Oasis,2500 W Danby Road,Spencer,NY,14883,2500 W Danby Road Spencer NY 14883 ,43.0612769,-73.8672442,500.00,4.00,500.00,1.00
Blue Mountain Growers LLC,975 Blue Mountain Road,Saugerties,NY,12477,975 Blue Mountain Road Saugerties NY 12477 ,42.3092074,-76.5231356,"2,000.00",77.00,,0.69
CG Drywall,3898 Phelps Rd,Stanley,NY,14561,3898 Phelps Rd Stanley NY 14561 ,42.1303110,-74.0193398,,5.00,,
Timber Trails Forest Farm,5565 County Rd 33,Canandaigua,NY,14424,5565 County Rd 33 Canandaigua NY 14424 ,42.7888830,-77.2105830,"2,000.00",2.00,,0.04
Cannabis Battles Cancer House of Hope,1246 Masten Rd,Hinsdale,NY,14743,1246 Masten Rd Hinsdale NY 14743 ,42.7489250,-77.4358139,228.00,,15.00,0.50
Shepherd's Hollow Farm,132 Salerno Road,Cooperstown,NY,13326,132 Salerno Road Cooperstown NY 13326 ,42.1467758,-78.3725628,"2,784.00",3.00,200.00,0.20
Gunnar Glover (Mountain Moor Farm),5171 Fitzgerald Road,Burdett,NY,14818,5171 Fitzgerald Road Burdett NY 14818 ,42.6458889,-74.8800490,"3,360.00",3.00,21.01,0.28
Upstate Hydroponic Growers LLC,1321 Saratoga Rd,Ballston Spa,NY,12020,1321 Saratoga Rd Ballston Spa NY 12020 ,42.4405655,-76.7704920,"3,600.00",,89.99,
ROC Hemp,35 Normandale Dr,Rochester,NY,14624,35 Normandale Dr Rochester NY 14624 ,42.9744262,-73.8624204,,1.00,,0.15
High Stakes Hemp LLC,143 State Route 169,Little Falls,NY,13365,143 State Route 169 Little Falls NY 13365 ,43.1516362,-77.6888418,"3,360.00",7.00,75.00,0.12
Lynford Wise,1811 Kuney Road,Romulus,NY,14541,1811 Kuney Road Romulus NY 14541 ,43.0444900,-74.8600972,,2.00,,0.42
Flavour Fields,23423 CR 48,Cutchogue,NY,11935,23423 CR 48 Cutchogue NY 11935 ,42.8054670,-76.8467870,"110,000.00",20.00,,
Hacienda Don Pedro,307 Meeker Road,Shawangunk,NY,12589,307 Meeker Road Shawangunk NY 12589 ,41.0332188,-72.4923239,,1.00,,
Yager Farms Inc,8880 Hammond Drive,Eden,NY,14057,8880 Hammond Drive Eden NY 14057 ,41.6660690,-74.2628600,"4,000.00",1.00,20.00,0.02
Star Land Farm,2291 Perry City Road,Ithaca,NY,14850,2291 Perry City Road Ithaca NY 14850 ,42.6435745,-78.8930392,"1,200.00",1.00,,
Kirch Farms and Forests LLC,6209 Keystone Way,Jamesville,NY,13078,6209 Keystone Way Jamesville NY 13078 ,42.4964177,-76.5675393,"1,000.00",10.00,,
Whiskey River Farms Enterprises LLC,21 Locust Ave East,Farmingdale,NY,11735,21 Locust Ave East Farmingdale NY 11735 ,43.0259904,-76.0884557,"2,880.00",15.00,,2.00
Brand S Farms Organics LLC,2353 Vorhees Hill Road,Wellsville,NY,14895,2353 Vorhees Hill Road Wellsville NY 14895 ,40.7203639,-73.4372964,"15,228.00",10.00,,2.00
Paul Dersam Inc,27 Dersam Road,Alden,NY,14004,27 Dersam Road Alden NY 14004 ,42.1012996,-77.8795796,,1.00,,
Sacred Seed Farm,5410 Pine Ridge Road,Trumansburg,NY,14886,5410 Pine Ridge Road Trumansburg NY 14886 ,42.8663210,-78.4794420,600.00,1.00,,0.03
Green Acres Farm,182 Mace Road,Gilboa,NY,12076,182 Mace Road Gilboa NY 12076 ,42.5021960,-76.6679520,,67.50,,
Magin Farms LLC,3561 Reeves Road,Maion,NY,14505,3561 Reeves Road Maion NY 14505 ,42.4612250,-74.3749490,800.00,,500.00,
Frank Farm,3042 Rt 346,N. Pownal,VT,5261,3042 Rt 346 N. Pownal VT 5261 ,43.1346030,-77.1750000,,2.00,,1.00
Cardea at Twin Elms LLC,1196 E. Main St.,East Aurora,NY,14052,1196 E. Main St. East Aurora NY 14052 ,42.7979899,-73.2644306,,5.00,,
Knapp Hemp,283 Chelsea Meadows Dr.,West Henrietta,NY,14586,283 Chelsea Meadows Dr. West Henrietta NY 14586 ,42.7691650,-78.5869767,,5.00,,2.50
High Peaks CBD LLC,100 Fish Hollow Rd.,Chestertown,NY,12817,100 Fish Hollow Rd. Chestertown NY 12817 ,43.0564517,-77.6613751,"2,000.00",12.00,,0.20
Ithaca College,953 Danby Road,Ithaca,NY,14850,953 Danby Road Ithaca NY 14850 ,43.7082787,-73.8927741,"4,946.00",3.00,,
Gulf Creek Station LLC,5788 Bonny Hill Road,Bath,NY,14810,5788 Bonny Hill Road Bath NY 14810 ,42.4199351,-76.4969643,,4.00,,
Simply Gold LLC,1331 Lincoln Pl. #1,Brooklyn,NY,11213,1331 Lincoln Pl. #1 Brooklyn NY 11213 ,42.2808530,-77.3256172,"1,000.00",10.00,,
Indigenous Cannabis Hemp LLC,3193 Buffalo Avenue,Niagara Falls,NY,14303,3193 Buffalo Avenue Niagara Falls NY 14303 ,40.6699552,-73.9324229,"7,380.00",,685.00,
Flora Hemp LLC,3193 Buffalo Avenue,Niagara Falls,NY,14303,3193 Buffalo Avenue Niagara Falls NY 14303 ,43.0812697,-79.0203749,"1,820.00",,210.00,
CalmUnity Farms,39 Wuthering Drive,Elmira,NY,14903,39 Wuthering Drive Elmira NY 14903 ,43.0812697,-79.0203749,,0.50,,
BYM Group LLC,1447 Saint Paul Street,Rochester,NY,14621,1447 Saint Paul Street Rochester NY 14621 ,42.1403937,-76.8590785,"44,079.00",,,
Puregreengrowth Inc,4347 U.S. Route 11,Pulaski,NY,13142,4347 U.S. Route 11 Pulaski NY 13142 ,43.1818842,-77.6258685,"16,800.00",,,